[
    {
        "zip": "01000",
        "city": "BOURG EN BRESSE"
    },
    {
        "zip": "01000",
        "city": "SAINT DENIS LES BOURG"
    },
    {
        "zip": "01130",
        "city": "BELLEYDOUX"
    },
    {
        "zip": "01130",
        "city": "NANTUA"
    },
    {
        "zip": "01140",
        "city": "SAINT DIDIER SUR CHALARONNE"
    },
    {
        "zip": "01140",
        "city": "SAINT ETIENNE SUR CHALARONNE"
    },
    {
        "zip": "01170",
        "city": "GEX"
    },
    {
        "zip": "01190",
        "city": "SAINT ETIENNE SUR REYSSOUZE"
    },
    {
        "zip": "01230",
        "city": "SAINT RAMBERT EN BUGEY"
    },
    {
        "zip": "01240",
        "city": "SAINT PAUL DE VARAX"
    },
    {
        "zip": "01300",
        "city": "BELLEY"
    },
    {
        "zip": "01340",
        "city": "SAINT DIDIER D'AUSSIAT"
    },
    {
        "zip": "01370",
        "city": "SAINT ETIENNE DU BOIS"
    },
    {
        "zip": "01460",
        "city": "NANTUA"
    },
    {
        "zip": "01500",
        "city": "SAINT DENIS EN BUGEY"
    },
    {
        "zip": "01600",
        "city": "SAINT DIDIER DE FORMANS"
    },
    {
        "zip": "02000",
        "city": "LAON"
    },
    {
        "zip": "02100",
        "city": "SAINT QUENTIN"
    },
    {
        "zip": "02140",
        "city": "SAINT PIERRE LES FRANQUEVILLE"
    },
    {
        "zip": "02140",
        "city": "VERVINS"
    },
    {
        "zip": "02160",
        "city": "MOULINS"
    },
    {
        "zip": "02200",
        "city": "SOISSONS"
    },
    {
        "zip": "02210",
        "city": "MURET ET CROUTTES"
    },
    {
        "zip": "02250",
        "city": "SAINT PIERREMONT"
    },
    {
        "zip": "02250",
        "city": "TOULIS ET ATTENCOURT"
    },
    {
        "zip": "02300",
        "city": "SAINT PAUL AUX BOIS"
    },
    {
        "zip": "02310",
        "city": "MONTREUIL AUX LIONS"
    },
    {
        "zip": "02340",
        "city": "CLERMONT LES FERMES"
    },
    {
        "zip": "02400",
        "city": "CHATEAU THIERRY"
    },
    {
        "zip": "02400",
        "city": "ETAMPES SUR MARNE"
    },
    {
        "zip": "02400",
        "city": "MONTHIERS"
    },
    {
        "zip": "02600",
        "city": "SAINT PIERRE AIGLE"
    },
    {
        "zip": "02680",
        "city": "CASTRES"
    },
    {
        "zip": "02810",
        "city": "TORCY EN VALOIS"
    },
    {
        "zip": "02860",
        "city": "LAVAL EN LAONNOIS"
    },
    {
        "zip": "02880",
        "city": "CLAMECY"
    },
    {
        "zip": "03000",
        "city": "MOULINS"
    },
    {
        "zip": "03100",
        "city": "MONTLUCON"
    },
    {
        "zip": "03110",
        "city": "SAINT DIDIER LA FORET"
    },
    {
        "zip": "03130",
        "city": "SAINT DIDIER EN DONJON"
    },
    {
        "zip": "03140",
        "city": "USSEL D'ALLIER"
    },
    {
        "zip": "03150",
        "city": "SAINT LOUP"
    },
    {
        "zip": "03200",
        "city": "VICHY"
    },
    {
        "zip": "03300",
        "city": "SAINT ETIENNE DE VICQ"
    },
    {
        "zip": "03390",
        "city": "BEAUNE D'ALLIER"
    },
    {
        "zip": "03400",
        "city": "TOULON SUR ALLIER"
    },
    {
        "zip": "03800",
        "city": "SAINT BONNET DE ROCHEFORT"
    },
    {
        "zip": "04000",
        "city": "DIGNE LES BAINS"
    },
    {
        "zip": "04120",
        "city": "CASTELLANE"
    },
    {
        "zip": "04140",
        "city": "BARLES"
    },
    {
        "zip": "04210",
        "city": "VALENSOLE"
    },
    {
        "zip": "04220",
        "city": "STE TULLE"
    },
    {
        "zip": "04230",
        "city": "LARDIERS"
    },
    {
        "zip": "04230",
        "city": "SAINT ETIENNE LES ORGUES"
    },
    {
        "zip": "04240",
        "city": "SAINT BENOIT"
    },
    {
        "zip": "04270",
        "city": "CHATEAUREDON"
    },
    {
        "zip": "04300",
        "city": "FORCALQUIER"
    },
    {
        "zip": "04370",
        "city": "COLMARS"
    },
    {
        "zip": "04380",
        "city": "BARRAS"
    },
    {
        "zip": "04400",
        "city": "BARCELONNETTE"
    },
    {
        "zip": "04530",
        "city": "SAINT PAUL SUR UBAYE"
    },
    {
        "zip": "05000",
        "city": "GAP"
    },
    {
        "zip": "05100",
        "city": "BRIANCON"
    },
    {
        "zip": "05110",
        "city": "LARDIER ET VALENCA"
    },
    {
        "zip": "05130",
        "city": "SAINT ETIENNE LE LAUS"
    },
    {
        "zip": "05140",
        "city": "SAINT JULIEN EN BEAUCHENE"
    },
    {
        "zip": "05140",
        "city": "SAINT PIERRE D'ARGENCON"
    },
    {
        "zip": "05300",
        "city": "SAINT PIERRE AVEZ"
    },
    {
        "zip": "05380",
        "city": "CHATEAUROUX LES ALPES"
    },
    {
        "zip": "06000",
        "city": "NICE"
    },
    {
        "zip": "06100",
        "city": "NICE"
    },
    {
        "zip": "06130",
        "city": "GRASSE"
    },
    {
        "zip": "06200",
        "city": "NICE"
    },
    {
        "zip": "06260",
        "city": "SAINT PIERRE"
    },
    {
        "zip": "06300",
        "city": "NICE"
    },
    {
        "zip": "06340",
        "city": "LA TRINITE"
    },
    {
        "zip": "06520",
        "city": "GRASSE"
    },
    {
        "zip": "06570",
        "city": "SAINT PAUL DE VENCE"
    },
    {
        "zip": "06620",
        "city": "GOURDON"
    },
    {
        "zip": "06660",
        "city": "SAINT ETIENNE DE TINEE"
    },
    {
        "zip": "06740",
        "city": "CHATEAUNEUF GRASSE"
    },
    {
        "zip": "06850",
        "city": "BRIANCONNET"
    },
    {
        "zip": "07000",
        "city": "GOURDON"
    },
    {
        "zip": "07000",
        "city": "PRIVAS"
    },
    {
        "zip": "07110",
        "city": "LARGENTIERE"
    },
    {
        "zip": "07130",
        "city": "TOULAUD"
    },
    {
        "zip": "07140",
        "city": "SAINT PIERRE ST JEAN"
    },
    {
        "zip": "07170",
        "city": "LAVILLEDIEU"
    },
    {
        "zip": "07190",
        "city": "SAINT ETIENNE DE SERRE"
    },
    {
        "zip": "07190",
        "city": "SAINT MAURICE EN CHALENCON"
    },
    {
        "zip": "07190",
        "city": "SAINT PIERREVILLE"
    },
    {
        "zip": "07200",
        "city": "SAINT DIDIER SOUS AUBENAS"
    },
    {
        "zip": "07200",
        "city": "SAINT ETIENNE DE BOULOGNE"
    },
    {
        "zip": "07200",
        "city": "SAINT ETIENNE DE FONTBELLON"
    },
    {
        "zip": "07300",
        "city": "TOURNON SUR RHONE"
    },
    {
        "zip": "07340",
        "city": "SAINT ETIENNE DE VALOUX"
    },
    {
        "zip": "07370",
        "city": "ARRAS SUR RHONE"
    },
    {
        "zip": "07380",
        "city": "PRADES"
    },
    {
        "zip": "07380",
        "city": "SAINT CIRGUES DE PRADES"
    },
    {
        "zip": "07400",
        "city": "SAINT PIERRE LA ROCHE"
    },
    {
        "zip": "07450",
        "city": "SAINT PIERRE DE COLOMBIER"
    },
    {
        "zip": "07460",
        "city": "SAINT PAUL LE JEUNE"
    },
    {
        "zip": "07470",
        "city": "LE LAC D'ISSARLES"
    },
    {
        "zip": "07520",
        "city": "SAINT PIERRE SUR DOUX"
    },
    {
        "zip": "07590",
        "city": "SAINT ETIENNE DE LUGDARES"
    },
    {
        "zip": "07590",
        "city": "SAINT LAURENT BAINS LAVAL D'AURELLE"
    },
    {
        "zip": "08000",
        "city": "CHARLEVILLE MEZIERES"
    },
    {
        "zip": "08130",
        "city": "LAMETZ"
    },
    {
        "zip": "08130",
        "city": "SAINT LAMBERT ET MONT DE JEUX"
    },
    {
        "zip": "08130",
        "city": "SAINT LOUP TERRIER"
    },
    {
        "zip": "08150",
        "city": "LAVAL MORENCY"
    },
    {
        "zip": "08200",
        "city": "SEDAN"
    },
    {
        "zip": "08220",
        "city": "CHAUMONT PORCIEN"
    },
    {
        "zip": "08220",
        "city": "SAINT QUENTIN LE PETIT"
    },
    {
        "zip": "08240",
        "city": "SAINT PIERREMONT"
    },
    {
        "zip": "08300",
        "city": "RETHEL"
    },
    {
        "zip": "08300",
        "city": "SAINT LOUP EN CHAMPAGNE"
    },
    {
        "zip": "08310",
        "city": "PAUVRES"
    },
    {
        "zip": "08310",
        "city": "SAINT ETIENNE A ARNES"
    },
    {
        "zip": "08310",
        "city": "SAINT PIERRE A ARNES"
    },
    {
        "zip": "08390",
        "city": "LE MONT DIEU"
    },
    {
        "zip": "08400",
        "city": "VOUZIERS"
    },
    {
        "zip": "08430",
        "city": "SAINT PIERRE SUR VENCE"
    },
    {
        "zip": "08430",
        "city": "TOULIGNY"
    },
    {
        "zip": "09000",
        "city": "FOIX"
    },
    {
        "zip": "09000",
        "city": "MONTOULIEU"
    },
    {
        "zip": "09000",
        "city": "SAINT PAUL DE JARRAT"
    },
    {
        "zip": "09000",
        "city": "SAINT PIERRE DE RIVIERE"
    },
    {
        "zip": "09100",
        "city": "PAMIERS"
    },
    {
        "zip": "09110",
        "city": "PRADES"
    },
    {
        "zip": "09160",
        "city": "MONTGAUCH"
    },
    {
        "zip": "09200",
        "city": "SAINT GIRONS"
    },
    {
        "zip": "09310",
        "city": "ALBIES"
    },
    {
        "zip": "09310",
        "city": "CHATEAU VERDUN"
    },
    {
        "zip": "09310",
        "city": "VERDUN"
    },
    {
        "zip": "09420",
        "city": "CLERMONT"
    },
    {
        "zip": "09500",
        "city": "SAINT QUENTIN LA TOUR"
    },
    {
        "zip": 10000,
        "city": "TROYES"
    },
    {
        "zip": 10100,
        "city": "SAINT LOUP DE BUFFIGNY"
    },
    {
        "zip": 10110,
        "city": "LOCHES SUR OURCE"
    },
    {
        "zip": 10180,
        "city": "SAINT BENOIT SUR SEINE"
    },
    {
        "zip": 10190,
        "city": "DIERREY ST JULIEN"
    },
    {
        "zip": 10190,
        "city": "DIERREY ST PIERRE"
    },
    {
        "zip": 10200,
        "city": "BAR SUR AUBE"
    },
    {
        "zip": 10210,
        "city": "METZ ROBERT"
    },
    {
        "zip": 10270,
        "city": "MONTREUIL SUR BARSE"
    },
    {
        "zip": 10400,
        "city": "NOGENT SUR SEINE"
    },
    {
        "zip": 10420,
        "city": "LES NOES PRES TROYES"
    },
    {
        "zip": 10500,
        "city": "DIENVILLE"
    },
    {
        "zip": 10700,
        "city": "SAINT ETIENNE SOUS BARBUISE"
    },
    {
        "zip": 10700,
        "city": "TORCY LE GRAND"
    },
    {
        "zip": 10700,
        "city": "TORCY LE PETIT"
    },
    {
        "zip": 10800,
        "city": "SAINT LEGER PRES TROYES"
    },
    {
        "zip": 11000,
        "city": "CARCASSONNE"
    },
    {
        "zip": 11100,
        "city": "MONTREDON DES CORBIERES"
    },
    {
        "zip": 11100,
        "city": "NARBONNE"
    },
    {
        "zip": 11120,
        "city": "SAINT NAZAIRE D'AUDE"
    },
    {
        "zip": 11140,
        "city": "BELFORT SUR REBENTY"
    },
    {
        "zip": 11140,
        "city": "NIORT DE SAULT"
    },
    {
        "zip": 11190,
        "city": "RENNES LE CHATEAU"
    },
    {
        "zip": 11190,
        "city": "RENNES LES BAINS"
    },
    {
        "zip": 11220,
        "city": "LAGRASSE"
    },
    {
        "zip": 11220,
        "city": "SAINT PIERRE DES CHAMPS"
    },
    {
        "zip": 11230,
        "city": "SAINT BENOIT"
    },
    {
        "zip": 11250,
        "city": "CLERMONT SUR LAUQUET"
    },
    {
        "zip": 11290,
        "city": "LAVALETTE"
    },
    {
        "zip": 11300,
        "city": "LIMOUX"
    },
    {
        "zip": 11300,
        "city": "PAULIGNE"
    },
    {
        "zip": 11310,
        "city": "SAINT DENIS"
    },
    {
        "zip": 11320,
        "city": "SAINT PAULET"
    },
    {
        "zip": 11330,
        "city": "ALBIERES"
    },
    {
        "zip": 11400,
        "city": "VERDUN EN LAURAGAIS"
    },
    {
        "zip": 11500,
        "city": "SAINT LOUIS ET PARAHOU"
    },
    {
        "zip": 11600,
        "city": "LASTOURS"
    },
    {
        "zip": 11800,
        "city": "MARSEILLETTE"
    },
    {
        "zip": 12000,
        "city": "RODEZ"
    },
    {
        "zip": 12100,
        "city": "MILLAU"
    },
    {
        "zip": 12200,
        "city": "TOULONJAC"
    },
    {
        "zip": 12200,
        "city": "VILLEFRANCHE DE ROUERGUE"
    },
    {
        "zip": 12250,
        "city": "SAINT JEAN ET ST PAUL"
    },
    {
        "zip": 12260,
        "city": "MONTSALES"
    },
    {
        "zip": 12290,
        "city": "PRADES SALARS"
    },
    {
        "zip": 12330,
        "city": "MURET LE CHATEAU"
    },
    {
        "zip": 12380,
        "city": "LAVAL ROQUECEZIERE"
    },
    {
        "zip": 12400,
        "city": "LES COSTES GOZON"
    },
    {
        "zip": 12440,
        "city": "LA SALVETAT PEYRALES"
    },
    {
        "zip": 12470,
        "city": "CONDOM D'AUBRAC"
    },
    {
        "zip": 12470,
        "city": "PRADES D'AUBRAC"
    },
    {
        "zip": 12520,
        "city": "PAULHE"
    },
    {
        "zip": 12630,
        "city": "AGEN D'AVEYRON"
    },
    {
        "zip": 13001,
        "city": "MARSEILLE 01"
    },
    {
        "zip": 13002,
        "city": "MARSEILLE 02"
    },
    {
        "zip": 13003,
        "city": "MARSEILLE 03"
    },
    {
        "zip": 13004,
        "city": "MARSEILLE 04"
    },
    {
        "zip": 13005,
        "city": "MARSEILLE 05"
    },
    {
        "zip": 13006,
        "city": "MARSEILLE 06"
    },
    {
        "zip": 13007,
        "city": "MARSEILLE 07"
    },
    {
        "zip": 13008,
        "city": "MARSEILLE 08"
    },
    {
        "zip": 13009,
        "city": "MARSEILLE 09"
    },
    {
        "zip": 13010,
        "city": "MARSEILLE 10"
    },
    {
        "zip": 13011,
        "city": "MARSEILLE 11"
    },
    {
        "zip": 13012,
        "city": "MARSEILLE 12"
    },
    {
        "zip": 13013,
        "city": "MARSEILLE 13"
    },
    {
        "zip": 13014,
        "city": "MARSEILLE 14"
    },
    {
        "zip": 13015,
        "city": "MARSEILLE 15"
    },
    {
        "zip": 13016,
        "city": "MARSEILLE 16"
    },
    {
        "zip": 13080,
        "city": "AIX EN PROVENCE"
    },
    {
        "zip": 13090,
        "city": "AIX EN PROVENCE"
    },
    {
        "zip": 13100,
        "city": "AIX EN PROVENCE"
    },
    {
        "zip": 13103,
        "city": "SAINT ETIENNE DU GRES"
    },
    {
        "zip": 13104,
        "city": "ARLES"
    },
    {
        "zip": 13115,
        "city": "SAINT PAUL LES DURANCE"
    },
    {
        "zip": 13118,
        "city": "ISTRES"
    },
    {
        "zip": 13123,
        "city": "ARLES"
    },
    {
        "zip": 13129,
        "city": "ARLES"
    },
    {
        "zip": 13150,
        "city": "SAINT PIERRE DE MEZOARGUES"
    },
    {
        "zip": 13200,
        "city": "ARLES"
    },
    {
        "zip": 13280,
        "city": "ARLES"
    },
    {
        "zip": 13290,
        "city": "AIX EN PROVENCE"
    },
    {
        "zip": 13540,
        "city": "AIX EN PROVENCE"
    },
    {
        "zip": 13800,
        "city": "ISTRES"
    },
    {
        "zip": 14000,
        "city": "CAEN"
    },
    {
        "zip": 14100,
        "city": "LISIEUX"
    },
    {
        "zip": 14100,
        "city": "SAINT DENIS DE MAILLOC"
    },
    {
        "zip": 14100,
        "city": "SAINT PIERRE DES IFS"
    },
    {
        "zip": 14110,
        "city": "SAINT DENIS DE MERE"
    },
    {
        "zip": 14130,
        "city": "BONNEVILLE LA LOUVET"
    },
    {
        "zip": 14130,
        "city": "SAINT BENOIT D'HEBERTOT"
    },
    {
        "zip": 14140,
        "city": "SAINT PIERRE EN AUGE"
    },
    {
        "zip": 14170,
        "city": "SAINT PIERRE EN AUGE"
    },
    {
        "zip": 14220,
        "city": "SAINT OMER"
    },
    {
        "zip": 14260,
        "city": "SAINT PIERRE DU FRESNE"
    },
    {
        "zip": 14310,
        "city": "SAINT LOUET SUR SEULLES"
    },
    {
        "zip": 14340,
        "city": "MONTREUIL EN AUGE"
    },
    {
        "zip": 14400,
        "city": "BAYEUX"
    },
    {
        "zip": 14400,
        "city": "SAINT LOUP HORS"
    },
    {
        "zip": 14400,
        "city": "VIENNE EN BESSIN"
    },
    {
        "zip": 14450,
        "city": "SAINT PIERRE DU MONT"
    },
    {
        "zip": 14480,
        "city": "MOULINS EN BESSIN"
    },
    {
        "zip": 14490,
        "city": "SAINT PAUL DU VERNAY"
    },
    {
        "zip": 14500,
        "city": "VIRE NORMANDIE"
    },
    {
        "zip": 14570,
        "city": "SAINT LAMBERT"
    },
    {
        "zip": 14670,
        "city": "SAINT PIERRE DU JONQUET"
    },
    {
        "zip": 14700,
        "city": "SAINT PIERRE CANIVET"
    },
    {
        "zip": 14700,
        "city": "SAINT PIERRE DU BU"
    },
    {
        "zip": 14740,
        "city": "MOULINS EN BESSIN"
    },
    {
        "zip": 14800,
        "city": "BONNEVILLE SUR TOUQUES"
    },
    {
        "zip": 14950,
        "city": "SAINT ETIENNE LA THILLAYE"
    },
    {
        "zip": 14950,
        "city": "SAINT PIERRE AZIF"
    },
    {
        "zip": 15000,
        "city": "AURILLAC"
    },
    {
        "zip": 15100,
        "city": "SAINT FLOUR"
    },
    {
        "zip": 15130,
        "city": "SAINT ETIENNE DE CARLAT"
    },
    {
        "zip": 15140,
        "city": "SAINT MARTIN CANTALES"
    },
    {
        "zip": 15140,
        "city": "SAINT PAUL DE SALERS"
    },
    {
        "zip": 15150,
        "city": "SAINT ETIENNE CANTALES"
    },
    {
        "zip": 15150,
        "city": "SAINT SANTIN CANTALES"
    },
    {
        "zip": 15200,
        "city": "MAURIAC"
    },
    {
        "zip": 15220,
        "city": "ROANNES ST MARY"
    },
    {
        "zip": 15230,
        "city": "PAULHENC"
    },
    {
        "zip": 15250,
        "city": "SAINT PAUL DES LANDES"
    },
    {
        "zip": 15300,
        "city": "DIENNE"
    },
    {
        "zip": 15300,
        "city": "USSEL"
    },
    {
        "zip": 15350,
        "city": "SAINT PIERRE"
    },
    {
        "zip": 15400,
        "city": "RIOM ES MONTAGNES"
    },
    {
        "zip": 15400,
        "city": "SAINT ETIENNE DE CHOMEIL"
    },
    {
        "zip": 15430,
        "city": "PAULHAC"
    },
    {
        "zip": 15600,
        "city": "SAINT ETIENNE DE MAURS"
    },
    {
        "zip": 15600,
        "city": "SAINT JULIEN DE TOURSAC"
    },
    {
        "zip": 16000,
        "city": "ANGOULEME"
    },
    {
        "zip": 16100,
        "city": "COGNAC"
    },
    {
        "zip": 16100,
        "city": "SAINT LAURENT DE COGNAC"
    },
    {
        "zip": 16110,
        "city": "MOULINS SUR TARDOIRE"
    },
    {
        "zip": 16150,
        "city": "SAINT QUENTIN SUR CHARENTE"
    },
    {
        "zip": 16210,
        "city": "SAINT QUENTIN DE CHALAIS"
    },
    {
        "zip": 16220,
        "city": "MOULINS SUR TARDOIRE"
    },
    {
        "zip": 16370,
        "city": "SAINT SULPICE DE COGNAC"
    },
    {
        "zip": 16450,
        "city": "LE GRAND MADIEU"
    },
    {
        "zip": 16460,
        "city": "VALENCE"
    },
    {
        "zip": 16500,
        "city": "CONFOLENS"
    },
    {
        "zip": 17000,
        "city": "LA ROCHELLE"
    },
    {
        "zip": 17240,
        "city": "SAINT SIGISMOND DE CLERMONT"
    },
    {
        "zip": 17260,
        "city": "MONTPELLIER DE MEDILLAN"
    },
    {
        "zip": 17270,
        "city": "SAINT PIERRE DU PALAIS"
    },
    {
        "zip": 17300,
        "city": "ROCHEFORT"
    },
    {
        "zip": 17310,
        "city": "SAINT PIERRE D'OLERON"
    },
    {
        "zip": 17330,
        "city": "BERNAY ST MARTIN"
    },
    {
        "zip": 17330,
        "city": "SAINT PIERRE DE L ISLE"
    },
    {
        "zip": 17380,
        "city": "SAINT LOUP"
    },
    {
        "zip": 17400,
        "city": "LES EGLISES D'ARGENTEUIL"
    },
    {
        "zip": 17400,
        "city": "SAINT JEAN D'ANGELY"
    },
    {
        "zip": 17400,
        "city": "SAINT PIERRE DE JUILLERS"
    },
    {
        "zip": 17470,
        "city": "LA VILLEDIEU"
    },
    {
        "zip": 17490,
        "city": "BEAUVAIS SUR MATHA"
    },
    {
        "zip": 17500,
        "city": "JONZAC"
    },
    {
        "zip": 17650,
        "city": "SAINT DENIS D'OLERON"
    },
    {
        "zip": 17700,
        "city": "SAINT PIERRE D'AMILLY"
    },
    {
        "zip": 17700,
        "city": "SAINT PIERRE LA NOUE"
    },
    {
        "zip": 17780,
        "city": "SAINT NAZAIRE SUR CHARENTE"
    },
    {
        "zip": 18000,
        "city": "BOURGES"
    },
    {
        "zip": 18100,
        "city": "VIERZON"
    },
    {
        "zip": 18130,
        "city": "SAINT DENIS DE PALIN"
    },
    {
        "zip": 18170,
        "city": "SAINT PIERRE LES BOIS"
    },
    {
        "zip": 18190,
        "city": "SAINT LOUP DES CHAUMES"
    },
    {
        "zip": 18200,
        "city": "SAINT AMAND MONTROND"
    },
    {
        "zip": 18210,
        "city": "SAINT PIERRE LES ETIEUX"
    },
    {
        "zip": 18300,
        "city": "SENS BEAUJEU"
    },
    {
        "zip": 18320,
        "city": "MARSEILLES LES AUBIGNY"
    },
    {
        "zip": 18350,
        "city": "CHAUMONT"
    },
    {
        "zip": 18390,
        "city": "MOULINS SUR YEVRE"
    },
    {
        "zip": 19000,
        "city": "TULLE"
    },
    {
        "zip": 19100,
        "city": "BRIVE LA GAILLARDE"
    },
    {
        "zip": 19150,
        "city": "SAINT PAUL"
    },
    {
        "zip": 19160,
        "city": "SAINT ETIENNE LA GENESTE"
    },
    {
        "zip": 19170,
        "city": "GOURDON MURAT"
    },
    {
        "zip": 19190,
        "city": "ALBIGNAC"
    },
    {
        "zip": 19200,
        "city": "SAINT ETIENNE AUX CLOS"
    },
    {
        "zip": 19200,
        "city": "USSEL"
    },
    {
        "zip": 19430,
        "city": "SAINT BONNET LES TOURS DE MERLE"
    },
    {
        "zip": 19550,
        "city": "LAVAL SUR LUZEGE"
    },
    {
        "zip": 20000,
        "city": "AJACCIO"
    },
    {
        "zip": 20090,
        "city": "AJACCIO"
    },
    {
        "zip": 20100,
        "city": "SARTENE"
    },
    {
        "zip": 20128,
        "city": "ALBITRECCIA"
    },
    {
        "zip": 20166,
        "city": "ALBITRECCIA"
    },
    {
        "zip": 20167,
        "city": "AJACCIO"
    },
    {
        "zip": 20200,
        "city": "BASTIA"
    },
    {
        "zip": 20234,
        "city": "VALLE D'ALESANI"
    },
    {
        "zip": 20250,
        "city": "CORTE"
    },
    {
        "zip": 20260,
        "city": "CALVI"
    },
    {
        "zip": 20600,
        "city": "BASTIA"
    },
    {
        "zip": 21000,
        "city": "DIJON"
    },
    {
        "zip": 21120,
        "city": "DIENAY"
    },
    {
        "zip": 21200,
        "city": "BEAUNE"
    },
    {
        "zip": 21200,
        "city": "MONTAGNY LES BEAUNE"
    },
    {
        "zip": 21210,
        "city": "SAINT DIDIER"
    },
    {
        "zip": 21220,
        "city": "EPERNAY SOUS GEVREY"
    },
    {
        "zip": 21230,
        "city": "SAINT PIERRE EN VAUX"
    },
    {
        "zip": 21270,
        "city": "SOISSONS SUR NACEY"
    },
    {
        "zip": 21320,
        "city": "MACONGE"
    },
    {
        "zip": 21330,
        "city": "NICEY"
    },
    {
        "zip": 21400,
        "city": "CHAUMONT LE BOIS"
    },
    {
        "zip": 21460,
        "city": "TORCY ET POULIGNY"
    },
    {
        "zip": 21500,
        "city": "MONTBARD"
    },
    {
        "zip": 21500,
        "city": "NOGENT LES MONTBARD"
    },
    {
        "zip": 21510,
        "city": "ROCHEFORT SUR BREVON"
    },
    {
        "zip": 21700,
        "city": "AGENCOURT"
    },
    {
        "zip": 22000,
        "city": "SAINT BRIEUC"
    },
    {
        "zip": 22100,
        "city": "DINAN"
    },
    {
        "zip": 22130,
        "city": "SAINT LORMEL"
    },
    {
        "zip": 22200,
        "city": "GUINGAMP"
    },
    {
        "zip": 22210,
        "city": "SAINT ETIENNE DU GUE DE L ISLE"
    },
    {
        "zip": 22300,
        "city": "LANNION"
    },
    {
        "zip": 22340,
        "city": "PAULE"
    },
    {
        "zip": 22350,
        "city": "LA CHAPELLE BLANCHE"
    },
    {
        "zip": 23000,
        "city": "GUERET"
    },
    {
        "zip": 23000,
        "city": "SAINT LEGER LE GUERETOIS"
    },
    {
        "zip": 23000,
        "city": "SAINT SULPICE LE GUERETOIS"
    },
    {
        "zip": 23130,
        "city": "ISSOUDUN LETRIEIX"
    },
    {
        "zip": 23130,
        "city": "LE CHAUCHET"
    },
    {
        "zip": 23130,
        "city": "SAINT DIZIER LA TOUR"
    },
    {
        "zip": 23130,
        "city": "SAINT LOUP"
    },
    {
        "zip": 23140,
        "city": "SAINT SILVAIN SOUS TOULX"
    },
    {
        "zip": 23170,
        "city": "LEPAUD"
    },
    {
        "zip": 23200,
        "city": "AUBUSSON"
    },
    {
        "zip": 23270,
        "city": "SAINT DIZIER LES DOMAINES"
    },
    {
        "zip": 23320,
        "city": "MONTAIGUT LE BLANC"
    },
    {
        "zip": 23340,
        "city": "LA VILLEDIEU"
    },
    {
        "zip": 23400,
        "city": "SAINT DIZIER MASBARAUD"
    },
    {
        "zip": 23430,
        "city": "SAINT PIERRE CHERIGNAT"
    },
    {
        "zip": 23460,
        "city": "SAINT PIERRE BELLEVUE"
    },
    {
        "zip": 23480,
        "city": "SAINT AVIT LE PAUVRE"
    },
    {
        "zip": 23500,
        "city": "SAINT QUENTIN LA CHABANNE"
    },
    {
        "zip": 23600,
        "city": "SAINT PIERRE LE BOST"
    },
    {
        "zip": 23600,
        "city": "TOULX STE CROIX"
    },
    {
        "zip": 24000,
        "city": "PERIGUEUX"
    },
    {
        "zip": 24100,
        "city": "BERGERAC"
    },
    {
        "zip": 24110,
        "city": "LEGUILLAC DE L AUCHE"
    },
    {
        "zip": 24130,
        "city": "SAINT PIERRE D'EYRAUD"
    },
    {
        "zip": 24140,
        "city": "CLERMONT DE BEAUREGARD"
    },
    {
        "zip": 24160,
        "city": "CLERMONT D'EXCIDEUIL"
    },
    {
        "zip": 24200,
        "city": "SARLAT LA CANEDA"
    },
    {
        "zip": 24230,
        "city": "BONNEVILLE ET ST AVIT DE FUMADIERES"
    },
    {
        "zip": 24300,
        "city": "NONTRON"
    },
    {
        "zip": 24310,
        "city": "PAUSSAC ET ST VIVIEN"
    },
    {
        "zip": 24320,
        "city": "SAINT PAUL LIZONNE"
    },
    {
        "zip": 24330,
        "city": "SAINT PIERRE DE CHIGNAC"
    },
    {
        "zip": 24370,
        "city": "CALVIAC EN PERIGORD"
    },
    {
        "zip": 24380,
        "city": "SAINT PAUL DE SERRE"
    },
    {
        "zip": 24400,
        "city": "SAINT ETIENNE DE PUYCORBIER"
    },
    {
        "zip": 24400,
        "city": "SAINT LOUIS EN L ISLE"
    },
    {
        "zip": 24450,
        "city": "SAINT PIERRE DE FRUGIE"
    },
    {
        "zip": 24450,
        "city": "SAINT PRIEST LES FOUGERES"
    },
    {
        "zip": 24510,
        "city": "PAUNAT"
    },
    {
        "zip": 24530,
        "city": "LA CHAPELLE FAUCHER"
    },
    {
        "zip": 24540,
        "city": "LAVALADE"
    },
    {
        "zip": 24590,
        "city": "PAULIN"
    },
    {
        "zip": 24800,
        "city": "SAINT PAUL LA ROCHE"
    },
    {
        "zip": 24800,
        "city": "SAINT PIERRE DE COLE"
    },
    {
        "zip": 25000,
        "city": "BESANCON"
    },
    {
        "zip": 25200,
        "city": "MONTBELIARD"
    },
    {
        "zip": 25210,
        "city": "LAVAL LE PRIEURE"
    },
    {
        "zip": 25210,
        "city": "MONTBELIARDOT"
    },
    {
        "zip": 25210,
        "city": "MONT DE LAVAL"
    },
    {
        "zip": 25240,
        "city": "LES VILLEDIEU"
    },
    {
        "zip": 25300,
        "city": "PONTARLIER"
    },
    {
        "zip": 25310,
        "city": "ABBEVILLERS"
    },
    {
        "zip": 25440,
        "city": "RENNES SUR LOUE"
    },
    {
        "zip": 25550,
        "city": "SAINT JULIEN LES MONTBELIARD"
    },
    {
        "zip": 26000,
        "city": "VALENCE"
    },
    {
        "zip": 26110,
        "city": "NYONS"
    },
    {
        "zip": 26130,
        "city": "SAINT PAUL TROIS CHATEAUX"
    },
    {
        "zip": 26140,
        "city": "SAINT RAMBERT D'ALBON"
    },
    {
        "zip": 26150,
        "city": "DIE"
    },
    {
        "zip": 26150,
        "city": "LAVAL D'AIX"
    },
    {
        "zip": 26160,
        "city": "LE POET LAVAL"
    },
    {
        "zip": 26160,
        "city": "ROCHEFORT EN VALDAINE"
    },
    {
        "zip": 26170,
        "city": "MONTAUBAN SUR L OUVEZE"
    },
    {
        "zip": 26170,
        "city": "RIOMS"
    },
    {
        "zip": 26190,
        "city": "SAINT NAZAIRE EN ROYANS"
    },
    {
        "zip": 26210,
        "city": "LENS LESTANG"
    },
    {
        "zip": 26220,
        "city": "DIEULEFIT"
    },
    {
        "zip": 26300,
        "city": "ROCHEFORT SAMSON"
    },
    {
        "zip": 26310,
        "city": "SAINT DIZIER EN DIOIS"
    },
    {
        "zip": 26320,
        "city": "SAINT MARCEL LES VALENCE"
    },
    {
        "zip": 26340,
        "city": "LA CHAUDIERE"
    },
    {
        "zip": 26340,
        "city": "SAINT BENOIT EN DIOIS"
    },
    {
        "zip": 26340,
        "city": "SAINT NAZAIRE LE DESERT"
    },
    {
        "zip": 26500,
        "city": "BOURG LES VALENCE"
    },
    {
        "zip": 26750,
        "city": "SAINT PAUL LES ROMANS"
    },
    {
        "zip": 26770,
        "city": "MONTBRISON SUR LEZ"
    },
    {
        "zip": 27000,
        "city": "EVREUX"
    },
    {
        "zip": 27110,
        "city": "LE TILLEUL LAMBERT"
    },
    {
        "zip": 27120,
        "city": "DOUAINS"
    },
    {
        "zip": 27140,
        "city": "SAINT DENIS LE FERMENT"
    },
    {
        "zip": 27190,
        "city": "LA BONNEVILLE SUR ITON"
    },
    {
        "zip": 27210,
        "city": "SAINT PIERRE DU VAL"
    },
    {
        "zip": 27260,
        "city": "SAINT PIERRE DE CORMEILLES"
    },
    {
        "zip": 27270,
        "city": "LA TRINITE DE REVILLE"
    },
    {
        "zip": 27290,
        "city": "BONNEVILLE APTOT"
    },
    {
        "zip": 27300,
        "city": "BERNAY"
    },
    {
        "zip": 27310,
        "city": "LA TRINITE DE THOUBERVILLE"
    },
    {
        "zip": 27350,
        "city": "BRESTOT"
    },
    {
        "zip": 27370,
        "city": "SAINT DIDIER DES BOIS"
    },
    {
        "zip": 27370,
        "city": "SAINT PIERRE DES FLEURS"
    },
    {
        "zip": 27370,
        "city": "SAINT PIERRE DU BOSGUERARD"
    },
    {
        "zip": 27390,
        "city": "MONTREUIL L ARGILLE"
    },
    {
        "zip": 27390,
        "city": "SAINT DENIS D'AUGERONS"
    },
    {
        "zip": 27390,
        "city": "SAINT PIERRE DE CERNIERES"
    },
    {
        "zip": 27430,
        "city": "SAINT ETIENNE DU VAUVRAY"
    },
    {
        "zip": 27430,
        "city": "SAINT PIERRE DU VAUVRAY"
    },
    {
        "zip": 27450,
        "city": "SAINT BENOIT DES OMBRES"
    },
    {
        "zip": 27450,
        "city": "SAINT ETIENNE L ALLIER"
    },
    {
        "zip": 27450,
        "city": "SAINT PIERRE DES IFS"
    },
    {
        "zip": 27480,
        "city": "LYONS LA FORET"
    },
    {
        "zip": 27520,
        "city": "SAINT DENIS DES MONTS"
    },
    {
        "zip": 27600,
        "city": "SAINT PIERRE LA GARENNE"
    },
    {
        "zip": 27700,
        "city": "LES ANDELYS"
    },
    {
        "zip": 27800,
        "city": "SAINT PAUL DE FOURQUES"
    },
    {
        "zip": 27800,
        "city": "SAINT PIERRE DE SALERNE"
    },
    {
        "zip": 27920,
        "city": "SAINT ETIENNE SOUS BAILLEUL"
    },
    {
        "zip": 27920,
        "city": "SAINT PIERRE DE BAILLEUL"
    },
    {
        "zip": 27930,
        "city": "LA TRINITE"
    },
    {
        "zip": 27930,
        "city": "LE VIEIL EVREUX"
    },
    {
        "zip": 28000,
        "city": "CHARTRES"
    },
    {
        "zip": 28100,
        "city": "DREUX"
    },
    {
        "zip": 28200,
        "city": "CHATEAUDUN"
    },
    {
        "zip": 28200,
        "city": "SAINT DENIS LANNERAY"
    },
    {
        "zip": 28240,
        "city": "SAINT DENIS DES PUITS"
    },
    {
        "zip": 28270,
        "city": "LAONS"
    },
    {
        "zip": 28360,
        "city": "LA BOURDINIERE ST LOUP"
    },
    {
        "zip": 28400,
        "city": "NOGENT LE ROTROU"
    },
    {
        "zip": 28500,
        "city": "MONTREUIL"
    },
    {
        "zip": 28800,
        "city": "LE GAULT ST DENIS"
    },
    {
        "zip": 29000,
        "city": "QUIMPER"
    },
    {
        "zip": 29150,
        "city": "CHATEAULIN"
    },
    {
        "zip": 29200,
        "city": "BREST"
    },
    {
        "zip": 29300,
        "city": "QUIMPERLE"
    },
    {
        "zip": 29400,
        "city": "LAMPAUL GUIMILIAU"
    },
    {
        "zip": 29600,
        "city": "MORLAIX"
    },
    {
        "zip": 29810,
        "city": "LAMPAUL PLOUARZEL"
    },
    {
        "zip": 29830,
        "city": "LAMPAUL PLOUDALMEZEAU"
    },
    {
        "zip": 30000,
        "city": "NIMES"
    },
    {
        "zip": 30100,
        "city": "ALES"
    },
    {
        "zip": 30110,
        "city": "LAVAL PRADEL"
    },
    {
        "zip": 30120,
        "city": "LE VIGAN"
    },
    {
        "zip": 30120,
        "city": "MONTDARDIER"
    },
    {
        "zip": 30130,
        "city": "SAINT PAULET DE CAISSON"
    },
    {
        "zip": 30170,
        "city": "LA CADIERE ET CAMBO"
    },
    {
        "zip": 30190,
        "city": "SAINT CHAPTES"
    },
    {
        "zip": 30200,
        "city": "SAINT ETIENNE DES SORTS"
    },
    {
        "zip": 30200,
        "city": "SAINT NAZAIRE"
    },
    {
        "zip": 30330,
        "city": "SAINT PAUL LES FONTS"
    },
    {
        "zip": 30360,
        "city": "SAINT ETIENNE DE L OLM"
    },
    {
        "zip": 30380,
        "city": "SAINT CHRISTOL LEZ ALES"
    },
    {
        "zip": 30400,
        "city": "VILLENEUVE LES AVIGNON"
    },
    {
        "zip": 30420,
        "city": "CALVISSON"
    },
    {
        "zip": 30440,
        "city": "SAINT ROMAN DE CODIERES"
    },
    {
        "zip": 30480,
        "city": "SAINT PAUL LA COSTE"
    },
    {
        "zip": 30500,
        "city": "SAINT DENIS"
    },
    {
        "zip": 30610,
        "city": "SAINT NAZAIRE DES GARDIES"
    },
    {
        "zip": 30650,
        "city": "ROCHEFORT DU GARD"
    },
    {
        "zip": 30700,
        "city": "MONTAREN ET ST MEDIERS"
    },
    {
        "zip": 30700,
        "city": "SAINT QUENTIN LA POTERIE"
    },
    {
        "zip": 30760,
        "city": "LAVAL ST ROMAN"
    },
    {
        "zip": 30760,
        "city": "SAINT CHRISTOL DE RODIERES"
    },
    {
        "zip": 30900,
        "city": "NIMES"
    },
    {
        "zip": 31000,
        "city": "TOULOUSE"
    },
    {
        "zip": 31100,
        "city": "TOULOUSE"
    },
    {
        "zip": 31110,
        "city": "MONTAUBAN DE LUCHON"
    },
    {
        "zip": 31110,
        "city": "SAINT PAUL D'OUEIL"
    },
    {
        "zip": 31140,
        "city": "SAINT LOUP CAMMAS"
    },
    {
        "zip": 31190,
        "city": "LAGRACE DIEU"
    },
    {
        "zip": 31200,
        "city": "TOULOUSE"
    },
    {
        "zip": 31230,
        "city": "LABASTIDE PAUMES"
    },
    {
        "zip": 31290,
        "city": "AVIGNONET LAURAGAIS"
    },
    {
        "zip": 31300,
        "city": "TOULOUSE"
    },
    {
        "zip": 31350,
        "city": "SAINT LOUP EN COMMINGES"
    },
    {
        "zip": 31370,
        "city": "LABASTIDE CLERMONT"
    },
    {
        "zip": 31380,
        "city": "PAULHAC"
    },
    {
        "zip": 31400,
        "city": "TOULOUSE"
    },
    {
        "zip": 31420,
        "city": "MONTOULIEU ST BERNARD"
    },
    {
        "zip": 31460,
        "city": "ALBIAC"
    },
    {
        "zip": 31500,
        "city": "TOULOUSE"
    },
    {
        "zip": 31530,
        "city": "SAINT PAUL SUR SAVE"
    },
    {
        "zip": 31570,
        "city": "SAINT PIERRE DE LAGES"
    },
    {
        "zip": 31590,
        "city": "LAVALETTE"
    },
    {
        "zip": 31590,
        "city": "SAINT MARCEL PAULEL"
    },
    {
        "zip": 31590,
        "city": "SAINT PIERRE"
    },
    {
        "zip": 31600,
        "city": "MURET"
    },
    {
        "zip": 31800,
        "city": "SAINT GAUDENS"
    },
    {
        "zip": 31810,
        "city": "CLERMONT LE FORT"
    },
    {
        "zip": 32000,
        "city": "AUCH"
    },
    {
        "zip": 32100,
        "city": "CONDOM"
    },
    {
        "zip": 32170,
        "city": "MONT DE MARRAST"
    },
    {
        "zip": 32190,
        "city": "SAINT PAUL DE BAISE"
    },
    {
        "zip": 32220,
        "city": "SAINT LOUBE"
    },
    {
        "zip": 32290,
        "city": "SAINT PIERRE D'AUBEZIES"
    },
    {
        "zip": 32300,
        "city": "CLERMONT POUYGUILLES"
    },
    {
        "zip": 32300,
        "city": "MIRANDE"
    },
    {
        "zip": 32310,
        "city": "VALENCE SUR BAISE"
    },
    {
        "zip": 32500,
        "city": "PAUILHAC"
    },
    {
        "zip": 32600,
        "city": "CLERMONT SAVES"
    },
    {
        "zip": 33000,
        "city": "BORDEAUX"
    },
    {
        "zip": 33100,
        "city": "BORDEAUX"
    },
    {
        "zip": 33120,
        "city": "ARCACHON"
    },
    {
        "zip": 33200,
        "city": "BORDEAUX"
    },
    {
        "zip": 33210,
        "city": "LANGON"
    },
    {
        "zip": 33210,
        "city": "SAINT LOUBERT"
    },
    {
        "zip": 33210,
        "city": "SAINT PIERRE DE MONS"
    },
    {
        "zip": 33210,
        "city": "TOULENNE"
    },
    {
        "zip": 33220,
        "city": "SAINT AVIT ST NAZAIRE"
    },
    {
        "zip": 33220,
        "city": "SAINT QUENTIN DE CAPLONG"
    },
    {
        "zip": 33250,
        "city": "PAUILLAC"
    },
    {
        "zip": 33300,
        "city": "BORDEAUX"
    },
    {
        "zip": 33330,
        "city": "SAINT ETIENNE DE LISSE"
    },
    {
        "zip": 33340,
        "city": "LESPARRE MEDOC"
    },
    {
        "zip": 33390,
        "city": "BLAYE"
    },
    {
        "zip": 33390,
        "city": "SAINT GENES DE BLAYE"
    },
    {
        "zip": 33390,
        "city": "SAINT PAUL"
    },
    {
        "zip": 33440,
        "city": "SAINT LOUIS DE MONTFERRAND"
    },
    {
        "zip": 33440,
        "city": "SAINT VINCENT DE PAUL"
    },
    {
        "zip": 33450,
        "city": "SAINT LOUBES"
    },
    {
        "zip": 33490,
        "city": "SAINT PIERRE D'AURILLAC"
    },
    {
        "zip": 33500,
        "city": "LIBOURNE"
    },
    {
        "zip": 33530,
        "city": "BASSENS"
    },
    {
        "zip": 33540,
        "city": "MAURIAC"
    },
    {
        "zip": 33580,
        "city": "DIEULIVOL"
    },
    {
        "zip": 33640,
        "city": "CASTRES GIRONDE"
    },
    {
        "zip": 33750,
        "city": "SAINT QUENTIN DE BARON"
    },
    {
        "zip": 33760,
        "city": "SAINT PIERRE DE BAT"
    },
    {
        "zip": 33800,
        "city": "BORDEAUX"
    },
    {
        "zip": 33820,
        "city": "SAINT AUBIN DE BLAYE"
    },
    {
        "zip": 33880,
        "city": "SAINT CAPRAIS DE BORDEAUX"
    },
    {
        "zip": 33910,
        "city": "SAINT DENIS DE PILE"
    },
    {
        "zip": 33920,
        "city": "SAINT CHRISTOLY DE BLAYE"
    },
    {
        "zip": 33920,
        "city": "SAINT GIRONS D'AIGUEVIVES"
    },
    {
        "zip": 33920,
        "city": "SAINT VIVIEN DE BLAYE"
    },
    {
        "zip": 34000,
        "city": "MONTPELLIER"
    },
    {
        "zip": 34070,
        "city": "MONTPELLIER"
    },
    {
        "zip": 34080,
        "city": "MONTPELLIER"
    },
    {
        "zip": 34090,
        "city": "MONTPELLIER"
    },
    {
        "zip": 34190,
        "city": "MONTOULIEU"
    },
    {
        "zip": 34230,
        "city": "PAULHAN"
    },
    {
        "zip": 34230,
        "city": "SAINT PONS DE MAUCHIENS"
    },
    {
        "zip": 34260,
        "city": "SAINT ETIENNE ESTRECHOUX"
    },
    {
        "zip": 34310,
        "city": "MONTOULIERS"
    },
    {
        "zip": 34360,
        "city": "PRADES SUR VERNAZOBRE"
    },
    {
        "zip": 34390,
        "city": "SAINT ETIENNE D'ALBAGNAN"
    },
    {
        "zip": 34400,
        "city": "SAINT NAZAIRE DE PEZAN"
    },
    {
        "zip": 34420,
        "city": "VILLENEUVE LES BEZIERS"
    },
    {
        "zip": 34490,
        "city": "SAINT NAZAIRE DE LADAREZ"
    },
    {
        "zip": 34500,
        "city": "BEZIERS"
    },
    {
        "zip": 34500,
        "city": "VILLENEUVE LES BEZIERS"
    },
    {
        "zip": 34520,
        "city": "SAINT PIERRE DE LA FAGE"
    },
    {
        "zip": 34570,
        "city": "SAINT PAUL ET VALMALLE"
    },
    {
        "zip": 34700,
        "city": "LAVALETTE"
    },
    {
        "zip": 34700,
        "city": "LODEVE"
    },
    {
        "zip": 34700,
        "city": "SAINT ETIENNE DE GOURGAS"
    },
    {
        "zip": 34730,
        "city": "PRADES LE LEZ"
    },
    {
        "zip": 34800,
        "city": "CLERMONT L HERAULT"
    },
    {
        "zip": 35000,
        "city": "RENNES"
    },
    {
        "zip": 35111,
        "city": "LILLEMER"
    },
    {
        "zip": 35114,
        "city": "SAINT BENOIT DES ONDES"
    },
    {
        "zip": 35131,
        "city": "CHARTRES DE BRETAGNE"
    },
    {
        "zip": 35200,
        "city": "RENNES"
    },
    {
        "zip": 35210,
        "city": "MONTREUIL DES LANDES"
    },
    {
        "zip": 35220,
        "city": "SAINT DIDIER"
    },
    {
        "zip": 35300,
        "city": "FOUGERES"
    },
    {
        "zip": 35360,
        "city": "MONTAUBAN DE BRETAGNE"
    },
    {
        "zip": 35400,
        "city": "SAINT MALO"
    },
    {
        "zip": 35430,
        "city": "SAINT JOUAN DES GUERETS"
    },
    {
        "zip": 35440,
        "city": "MONTREUIL SUR ILLE"
    },
    {
        "zip": 35460,
        "city": "SAINT MARC LE BLANC"
    },
    {
        "zip": 35480,
        "city": "SAINT MALO DE PHILY"
    },
    {
        "zip": 35490,
        "city": "SENS DE BRETAGNE"
    },
    {
        "zip": 35500,
        "city": "MONTREUIL SOUS PEROUSE"
    },
    {
        "zip": 35520,
        "city": "MONTREUIL LE GAST"
    },
    {
        "zip": 35600,
        "city": "REDON"
    },
    {
        "zip": 35630,
        "city": "SAINT BRIEUC DES IFFS"
    },
    {
        "zip": 35660,
        "city": "LANGON"
    },
    {
        "zip": 35680,
        "city": "MOULINS"
    },
    {
        "zip": 35700,
        "city": "RENNES"
    },
    {
        "zip": 35750,
        "city": "SAINT MALON SUR MEL"
    },
    {
        "zip": 35850,
        "city": "PARTHENAY DE BRETAGNE"
    },
    {
        "zip": 36000,
        "city": "CHATEAUROUX"
    },
    {
        "zip": 36100,
        "city": "ISSOUDUN"
    },
    {
        "zip": 36110,
        "city": "MOULINS SUR CEPHONS"
    },
    {
        "zip": 36170,
        "city": "LA CHATRE LANGLIN"
    },
    {
        "zip": 36170,
        "city": "SAINT BENOIT DU SAULT"
    },
    {
        "zip": 36220,
        "city": "LUREUIL"
    },
    {
        "zip": 36230,
        "city": "SAINT DENIS DE JOUHET"
    },
    {
        "zip": 36260,
        "city": "PAUDY"
    },
    {
        "zip": 36260,
        "city": "SAINT PIERRE DE JARDS"
    },
    {
        "zip": 36290,
        "city": "PAULNAY"
    },
    {
        "zip": 36300,
        "city": "LE BLANC"
    },
    {
        "zip": 36400,
        "city": "LA CHATRE"
    },
    {
        "zip": 37000,
        "city": "TOURS"
    },
    {
        "zip": 37100,
        "city": "TOURS"
    },
    {
        "zip": 37150,
        "city": "DIERRE"
    },
    {
        "zip": 37200,
        "city": "TOURS"
    },
    {
        "zip": 37230,
        "city": "SAINT ETIENNE DE CHIGNY"
    },
    {
        "zip": 37240,
        "city": "LA CHAPELLE BLANCHE ST MARTIN"
    },
    {
        "zip": 37290,
        "city": "TOURNON ST PIERRE"
    },
    {
        "zip": 37310,
        "city": "SAINT QUENTIN SUR INDROIS"
    },
    {
        "zip": 37350,
        "city": "PAULMY"
    },
    {
        "zip": 37500,
        "city": "CHINON"
    },
    {
        "zip": 37500,
        "city": "SAINT BENOIT LA FORET"
    },
    {
        "zip": 37500,
        "city": "SAINT GERMAIN SUR VIENNE"
    },
    {
        "zip": 37530,
        "city": "MONTREUIL EN TOURAINE"
    },
    {
        "zip": 37600,
        "city": "LOCHES"
    },
    {
        "zip": 37700,
        "city": "SAINT PIERRE DES CORPS"
    },
    {
        "zip": 38000,
        "city": "GRENOBLE"
    },
    {
        "zip": 38070,
        "city": "SAINT QUENTIN FALLAVIER"
    },
    {
        "zip": 38100,
        "city": "GRENOBLE"
    },
    {
        "zip": 38110,
        "city": "LA TOUR DU PIN"
    },
    {
        "zip": 38110,
        "city": "SAINT DIDIER DE LA TOUR"
    },
    {
        "zip": 38140,
        "city": "LA MURETTE"
    },
    {
        "zip": 38140,
        "city": "SAINT PAUL D'IZEAUX"
    },
    {
        "zip": 38160,
        "city": "SAINT PIERRE DE CHERENNES"
    },
    {
        "zip": 38190,
        "city": "LAVAL EN BELLEDONNE"
    },
    {
        "zip": 38200,
        "city": "SAINT SORLIN DE VIENNE"
    },
    {
        "zip": 38200,
        "city": "VIENNE"
    },
    {
        "zip": 38210,
        "city": "SAINT QUENTIN SUR ISERE"
    },
    {
        "zip": 38220,
        "city": "SAINT PIERRE DE MESAGE"
    },
    {
        "zip": 38330,
        "city": "SAINT NAZAIRE LES EYMES"
    },
    {
        "zip": 38350,
        "city": "LAVALDENS"
    },
    {
        "zip": 38350,
        "city": "NANTES EN RATIER"
    },
    {
        "zip": 38350,
        "city": "SAINT PIERRE DE MEAROZ"
    },
    {
        "zip": 38380,
        "city": "SAINT PIERRE DE CHARTREUSE"
    },
    {
        "zip": 38380,
        "city": "SAINT PIERRE D'ENTREMONT"
    },
    {
        "zip": 38480,
        "city": "SAINT ALBIN DE VAULSERRE"
    },
    {
        "zip": 38590,
        "city": "SAINT ETIENNE DE ST GEOIRS"
    },
    {
        "zip": 38650,
        "city": "AVIGNONET"
    },
    {
        "zip": 38650,
        "city": "SAINT PAUL LES MONESTIER"
    },
    {
        "zip": 38690,
        "city": "SAINT DIDIER DE BIZONNES"
    },
    {
        "zip": 38760,
        "city": "SAINT PAUL DE VARCES"
    },
    {
        "zip": 38790,
        "city": "DIEMOZ"
    },
    {
        "zip": 38870,
        "city": "SAINT PIERRE DE BRESSIEUX"
    },
    {
        "zip": 38960,
        "city": "SAINT ETIENNE DE CROSSEY"
    },
    {
        "zip": 39000,
        "city": "LONS LE SAUNIER"
    },
    {
        "zip": 39100,
        "city": "DOLE"
    },
    {
        "zip": 39120,
        "city": "SAINT LOUP"
    },
    {
        "zip": 39150,
        "city": "LES CHALESMES"
    },
    {
        "zip": 39150,
        "city": "SAINT PIERRE"
    },
    {
        "zip": 39170,
        "city": "LAVANS LES ST CLAUDE"
    },
    {
        "zip": 39200,
        "city": "AVIGNON LES ST CLAUDE"
    },
    {
        "zip": 39200,
        "city": "SAINT CLAUDE"
    },
    {
        "zip": 39210,
        "city": "BLOIS SUR SEILLE"
    },
    {
        "zip": 39230,
        "city": "SAINT LOTHAIN"
    },
    {
        "zip": 39230,
        "city": "TOULOUSE LE CHATEAU"
    },
    {
        "zip": 39570,
        "city": "SAINT DIDIER"
    },
    {
        "zip": 39700,
        "city": "LAVANS LES DOLE"
    },
    {
        "zip": 39700,
        "city": "ROCHEFORT SUR NENON"
    },
    {
        "zip": 40000,
        "city": "MONT DE MARSAN"
    },
    {
        "zip": 40100,
        "city": "DAX"
    },
    {
        "zip": 40180,
        "city": "CLERMONT"
    },
    {
        "zip": 40200,
        "city": "SAINT PAUL EN BORN"
    },
    {
        "zip": 40250,
        "city": "TOULOUZETTE"
    },
    {
        "zip": 40280,
        "city": "SAINT PIERRE DU MONT"
    },
    {
        "zip": 40300,
        "city": "SAINT ETIENNE D'ORTHE"
    },
    {
        "zip": 40300,
        "city": "SAINT LON LES MINES"
    },
    {
        "zip": 40320,
        "city": "SAINT LOUBOUER"
    },
    {
        "zip": 40990,
        "city": "SAINT PAUL LES DAX"
    },
    {
        "zip": 40990,
        "city": "SAINT VINCENT DE PAUL"
    },
    {
        "zip": 41000,
        "city": "BLOIS"
    },
    {
        "zip": 41000,
        "city": "SAINT DENIS SUR LOIRE"
    },
    {
        "zip": 41100,
        "city": "VENDOME"
    },
    {
        "zip": 41150,
        "city": "CHAUMONT SUR LOIRE"
    },
    {
        "zip": 41190,
        "city": "SAINT ETIENNE DES GUERETS"
    },
    {
        "zip": 41200,
        "city": "ROMORANTIN LANTHENAY"
    },
    {
        "zip": 41320,
        "city": "LANGON SUR CHER"
    },
    {
        "zip": 41320,
        "city": "SAINT LOUP"
    },
    {
        "zip": 41350,
        "city": "SAINT CLAUDE DE DIRAY"
    },
    {
        "zip": 41600,
        "city": "CHAUMONT SUR THARONNE"
    },
    {
        "zip": 41800,
        "city": "SAINT JACQUES DES GUERETS"
    },
    {
        "zip": 42000,
        "city": "SAINT ETIENNE"
    },
    {
        "zip": 42100,
        "city": "SAINT ETIENNE"
    },
    {
        "zip": 42111,
        "city": "LA VALLA SUR ROCHEFORT"
    },
    {
        "zip": 42111,
        "city": "SAINT DIDIER SUR ROCHEFORT"
    },
    {
        "zip": 42130,
        "city": "MONTVERDUN"
    },
    {
        "zip": 42130,
        "city": "SAINT ETIENNE LE MOLARD"
    },
    {
        "zip": 42130,
        "city": "SAINT LAURENT ROCHEFORT"
    },
    {
        "zip": 42140,
        "city": "SAINT DENIS SUR COISE"
    },
    {
        "zip": 42155,
        "city": "SAINT LEGER SUR ROANNE"
    },
    {
        "zip": 42170,
        "city": "SAINT JUST ST RAMBERT"
    },
    {
        "zip": 42190,
        "city": "SAINT PIERRE LA NOAILLE"
    },
    {
        "zip": 42230,
        "city": "SAINT ETIENNE"
    },
    {
        "zip": 42240,
        "city": "SAINT PAUL EN CORNILLON"
    },
    {
        "zip": 42260,
        "city": "LURE"
    },
    {
        "zip": 42260,
        "city": "SAINT GERMAIN LAVAL"
    },
    {
        "zip": 42300,
        "city": "ROANNE"
    },
    {
        "zip": 42310,
        "city": "LA PACAUDIERE"
    },
    {
        "zip": 42350,
        "city": "LA TALAUDIERE"
    },
    {
        "zip": 42520,
        "city": "SAINT PIERRE DE BOEUF"
    },
    {
        "zip": 42600,
        "city": "MONTBRISON"
    },
    {
        "zip": 42600,
        "city": "SAINT PAUL D'UZORE"
    },
    {
        "zip": 42620,
        "city": "SAINT PIERRE LAVAL"
    },
    {
        "zip": 42720,
        "city": "LA BENISSON DIEU"
    },
    {
        "zip": 42740,
        "city": "SAINT PAUL EN JAREZ"
    },
    {
        "zip": 42750,
        "city": "SAINT DENIS DE CABANNE"
    },
    {
        "zip": 43000,
        "city": "LE PUY EN VELAY"
    },
    {
        "zip": 43100,
        "city": "BRIOUDE"
    },
    {
        "zip": 43100,
        "city": "LAVAUDIEU"
    },
    {
        "zip": 43100,
        "city": "PAULHAC"
    },
    {
        "zip": 43100,
        "city": "SAINT JUST PRES BRIOUDE"
    },
    {
        "zip": 43130,
        "city": "SAINT ANDRE DE CHALENCON"
    },
    {
        "zip": 43140,
        "city": "SAINT DIDIER EN VELAY"
    },
    {
        "zip": 43140,
        "city": "SAINT VICTOR MALESCOURS"
    },
    {
        "zip": 43160,
        "city": "LA CHAISE DIEU"
    },
    {
        "zip": 43200,
        "city": "LAPTE"
    },
    {
        "zip": 43200,
        "city": "YSSINGEAUX"
    },
    {
        "zip": 43210,
        "city": "VALPRIVAS"
    },
    {
        "zip": 43230,
        "city": "PAULHAGUET"
    },
    {
        "zip": 43260,
        "city": "SAINT ETIENNE LARDEYROL"
    },
    {
        "zip": 43260,
        "city": "SAINT JULIEN CHAPTEUIL"
    },
    {
        "zip": 43260,
        "city": "SAINT PIERRE EYNAC"
    },
    {
        "zip": 43300,
        "city": "PRADES"
    },
    {
        "zip": 43350,
        "city": "SAINT GENEYS PRES ST PAULIEN"
    },
    {
        "zip": 43350,
        "city": "SAINT PAULIEN"
    },
    {
        "zip": 43420,
        "city": "SAINT ETIENNE DU VIGAN"
    },
    {
        "zip": 43420,
        "city": "SAINT PAUL DE TARTAS"
    },
    {
        "zip": 43440,
        "city": "LAVAL SUR DOULON"
    },
    {
        "zip": 43440,
        "city": "SAINT DIDIER SUR DOULON"
    },
    {
        "zip": 43450,
        "city": "SAINT ETIENNE SUR BLESLE"
    },
    {
        "zip": 43500,
        "city": "BEAUNE SUR ARZON"
    },
    {
        "zip": 43500,
        "city": "SAINT PAL DE CHALENCON"
    },
    {
        "zip": 43810,
        "city": "SAINT PIERRE DU CHAMP"
    },
    {
        "zip": 44000,
        "city": "NANTES"
    },
    {
        "zip": 44100,
        "city": "NANTES"
    },
    {
        "zip": 44110,
        "city": "CHATEAUBRIANT"
    },
    {
        "zip": 44200,
        "city": "NANTES"
    },
    {
        "zip": 44270,
        "city": "PAULX"
    },
    {
        "zip": 44270,
        "city": "SAINT ETIENNE DE MER MORTE"
    },
    {
        "zip": 44300,
        "city": "NANTES"
    },
    {
        "zip": 44360,
        "city": "SAINT ETIENNE DE MONTLUC"
    },
    {
        "zip": 44430,
        "city": "LA REMAUDIERE"
    },
    {
        "zip": 44460,
        "city": "SAINT NICOLAS DE REDON"
    },
    {
        "zip": 44550,
        "city": "SAINT MALO DE GUERSAC"
    },
    {
        "zip": 44600,
        "city": "SAINT NAZAIRE"
    },
    {
        "zip": 45000,
        "city": "ORLEANS"
    },
    {
        "zip": 45100,
        "city": "ORLEANS"
    },
    {
        "zip": 45200,
        "city": "MONTARGIS"
    },
    {
        "zip": 45200,
        "city": "PAUCOURT"
    },
    {
        "zip": 45300,
        "city": "LE MALESHERBOIS"
    },
    {
        "zip": 45300,
        "city": "PITHIVIERS"
    },
    {
        "zip": 45300,
        "city": "PITHIVIERS LE VIEIL"
    },
    {
        "zip": 45330,
        "city": "LE MALESHERBOIS"
    },
    {
        "zip": 45340,
        "city": "BEAUNE LA ROLANDE"
    },
    {
        "zip": 45340,
        "city": "BORDEAUX EN GATINAIS"
    },
    {
        "zip": 45340,
        "city": "SAINT LOUP DES VIGNES"
    },
    {
        "zip": 45510,
        "city": "VANNES SUR COSSON"
    },
    {
        "zip": 45510,
        "city": "VIENNE EN VAL"
    },
    {
        "zip": 45550,
        "city": "SAINT DENIS DE L HOTEL"
    },
    {
        "zip": 45560,
        "city": "SAINT DENIS EN VAL"
    },
    {
        "zip": 45650,
        "city": "SAINT JEAN LE BLANC"
    },
    {
        "zip": 45730,
        "city": "SAINT BENOIT SUR LOIRE"
    },
    {
        "zip": 46000,
        "city": "CAHORS"
    },
    {
        "zip": 46090,
        "city": "SAINT PIERRE LAFEUILLE"
    },
    {
        "zip": 46100,
        "city": "FIGEAC"
    },
    {
        "zip": 46130,
        "city": "LAVAL DE CERE"
    },
    {
        "zip": 46150,
        "city": "SAINT DENIS CATUS"
    },
    {
        "zip": 46160,
        "city": "CALVIGNAC"
    },
    {
        "zip": 46160,
        "city": "SAINT PIERRE TOIRAC"
    },
    {
        "zip": 46170,
        "city": "SAINT PAUL FLAUGNAC"
    },
    {
        "zip": 46230,
        "city": "BELFORT DU QUERCY"
    },
    {
        "zip": 46240,
        "city": "USSEL"
    },
    {
        "zip": 46270,
        "city": "MONTREDON"
    },
    {
        "zip": 46300,
        "city": "GOURDON"
    },
    {
        "zip": 46300,
        "city": "LE VIGAN"
    },
    {
        "zip": 46400,
        "city": "SAINT LAURENT LES TOURS"
    },
    {
        "zip": 46400,
        "city": "SAINT PAUL DE VERN"
    },
    {
        "zip": 46500,
        "city": "ALBIAC"
    },
    {
        "zip": 46600,
        "city": "SAINT DENIS LES MARTEL"
    },
    {
        "zip": 46700,
        "city": "SAINT MARTIN LE REDON"
    },
    {
        "zip": 47000,
        "city": "AGEN"
    },
    {
        "zip": 47120,
        "city": "SAINT PIERRE SUR DROPT"
    },
    {
        "zip": 47130,
        "city": "CLERMONT DESSOUS"
    },
    {
        "zip": 47150,
        "city": "PAULHIAC"
    },
    {
        "zip": 47160,
        "city": "SAINT PIERRE DE BUZET"
    },
    {
        "zip": 47200,
        "city": "MARMANDE"
    },
    {
        "zip": 47210,
        "city": "SAINT ETIENNE DE VILLEREAL"
    },
    {
        "zip": 47270,
        "city": "CLERMONT SOUBIRAN"
    },
    {
        "zip": 47270,
        "city": "SAINT PIERRE DE CLAIRAC"
    },
    {
        "zip": 47300,
        "city": "VILLENEUVE SUR LOT"
    },
    {
        "zip": 47330,
        "city": "SAINT QUENTIN DU DROPT"
    },
    {
        "zip": 47350,
        "city": "SAINT BARTHELEMY D'AGENAIS"
    },
    {
        "zip": 47370,
        "city": "TOURNON D'AGENAIS"
    },
    {
        "zip": 47380,
        "city": "SAINT ETIENNE DE FOUGERES"
    },
    {
        "zip": 47430,
        "city": "LE MAS D'AGENAIS"
    },
    {
        "zip": 47600,
        "city": "NERAC"
    },
    {
        "zip": 48000,
        "city": "MENDE"
    },
    {
        "zip": 48000,
        "city": "SAINT ETIENNE DU VALDONNEZ"
    },
    {
        "zip": 48100,
        "city": "SAINT LAURENT DE MURET"
    },
    {
        "zip": 48140,
        "city": "PAULHAC EN MARGERIDE"
    },
    {
        "zip": 48150,
        "city": "SAINT PIERRE DES TRIPIERS"
    },
    {
        "zip": 48200,
        "city": "SAINT PIERRE LE VIEUX"
    },
    {
        "zip": 48300,
        "city": "SAINT FLOUR DE MERCOIRE"
    },
    {
        "zip": 48330,
        "city": "SAINT ETIENNE VALLEE FRANCAISE"
    },
    {
        "zip": 48340,
        "city": "SAINT PIERRE DE NOGARET"
    },
    {
        "zip": 48400,
        "city": "FLORAC TROIS RIVIERES"
    },
    {
        "zip": 48500,
        "city": "LAVAL DU TARN"
    },
    {
        "zip": 48600,
        "city": "SAINT BONNET LAVAL"
    },
    {
        "zip": 48600,
        "city": "SAINT PAUL LE FROID"
    },
    {
        "zip": 48700,
        "city": "SAINT DENIS EN MARGERIDE"
    },
    {
        "zip": 49000,
        "city": "ANGERS"
    },
    {
        "zip": 49070,
        "city": "SAINT LAMBERT LA POTHERIE"
    },
    {
        "zip": 49100,
        "city": "ANGERS"
    },
    {
        "zip": 49140,
        "city": "MONTREUIL SUR LOIR"
    },
    {
        "zip": 49190,
        "city": "ROCHEFORT SUR LOIRE"
    },
    {
        "zip": 49220,
        "city": "LE LION D'ANGERS"
    },
    {
        "zip": 49220,
        "city": "MONTREUIL SUR MAINE"
    },
    {
        "zip": 49260,
        "city": "MONTREUIL BELLAY"
    },
    {
        "zip": 49280,
        "city": "SAINT LEGER SOUS CHOLET"
    },
    {
        "zip": 49300,
        "city": "CHOLET"
    },
    {
        "zip": 49310,
        "city": "SAINT PAUL DU BOIS"
    },
    {
        "zip": 49320,
        "city": "LES GARENNES SUR LOIRE"
    },
    {
        "zip": 49400,
        "city": "SAUMUR"
    },
    {
        "zip": 49460,
        "city": "MONTREUIL JUIGNE"
    },
    {
        "zip": 49500,
        "city": "SEGRE EN ANJOU BLEU"
    },
    {
        "zip": 49520,
        "city": "SEGRE EN ANJOU BLEU"
    },
    {
        "zip": 49610,
        "city": "LES GARENNES SUR LOIRE"
    },
    {
        "zip": 50000,
        "city": "SAINT LO"
    },
    {
        "zip": 50100,
        "city": "CHERBOURG EN COTENTIN"
    },
    {
        "zip": 50110,
        "city": "CHERBOURG EN COTENTIN"
    },
    {
        "zip": 50120,
        "city": "CHERBOURG EN COTENTIN"
    },
    {
        "zip": 50130,
        "city": "CHERBOURG EN COTENTIN"
    },
    {
        "zip": 50200,
        "city": "COUTANCES"
    },
    {
        "zip": 50200,
        "city": "SAINT MALO DE LA LANDE"
    },
    {
        "zip": 50200,
        "city": "SAINT PIERRE DE COUTANCES"
    },
    {
        "zip": 50210,
        "city": "SAINT DENIS LE VETU"
    },
    {
        "zip": 50220,
        "city": "SAINT QUENTIN SUR LE HOMME"
    },
    {
        "zip": 50270,
        "city": "SAINT PIERRE D'ARTHEGLISE"
    },
    {
        "zip": 50300,
        "city": "AVRANCHES"
    },
    {
        "zip": 50300,
        "city": "SAINT LOUP"
    },
    {
        "zip": 50300,
        "city": "SAINT SENIER SOUS AVRANCHES"
    },
    {
        "zip": 50330,
        "city": "SAINT PIERRE EGLISE"
    },
    {
        "zip": 50360,
        "city": "LA BONNEVILLE"
    },
    {
        "zip": 50420,
        "city": "SAINT LOUET SUR VIRE"
    },
    {
        "zip": 50450,
        "city": "SAINT DENIS LE GAST"
    },
    {
        "zip": 50460,
        "city": "CHERBOURG EN COTENTIN"
    },
    {
        "zip": 50470,
        "city": "CHERBOURG EN COTENTIN"
    },
    {
        "zip": 50530,
        "city": "SAINT PIERRE LANGERS"
    },
    {
        "zip": 50570,
        "city": "MONTREUIL SUR LOZON"
    },
    {
        "zip": 50800,
        "city": "LA TRINITE"
    },
    {
        "zip": 50810,
        "city": "SAINT PIERRE DE SEMILLY"
    },
    {
        "zip": 51000,
        "city": "CHALONS EN CHAMPAGNE"
    },
    {
        "zip": 51100,
        "city": "REIMS"
    },
    {
        "zip": 51110,
        "city": "LAVANNES"
    },
    {
        "zip": 51110,
        "city": "SAINT ETIENNE SUR SUIPPE"
    },
    {
        "zip": 51120,
        "city": "SAINT LOUP"
    },
    {
        "zip": 51120,
        "city": "SAINT QUENTIN LE VERGER"
    },
    {
        "zip": 51150,
        "city": "TOURS SUR MARNE"
    },
    {
        "zip": 51190,
        "city": "LES ISTRES ET BURY"
    },
    {
        "zip": 51200,
        "city": "EPERNAY"
    },
    {
        "zip": 51240,
        "city": "SAINT QUENTIN SUR COOLE"
    },
    {
        "zip": 51300,
        "city": "REIMS LA BRULEE"
    },
    {
        "zip": 51300,
        "city": "SAINT QUENTIN LES MARAIS"
    },
    {
        "zip": 51300,
        "city": "VITRY LE FRANCOIS"
    },
    {
        "zip": 51460,
        "city": "SAINT ETIENNE AU TEMPLE"
    },
    {
        "zip": 51510,
        "city": "SAINT PIERRE"
    },
    {
        "zip": 51530,
        "city": "SAINT MARTIN D'ABLOIS"
    },
    {
        "zip": 51600,
        "city": "LAVAL SUR TOURBE"
    },
    {
        "zip": 51800,
        "city": "VIENNE LA VILLE"
    },
    {
        "zip": 51800,
        "city": "VIENNE LE CHATEAU"
    },
    {
        "zip": 52000,
        "city": "CHAUMONT"
    },
    {
        "zip": 52100,
        "city": "SAINT DIZIER"
    },
    {
        "zip": 52130,
        "city": "MONTREUIL SUR BLAISE"
    },
    {
        "zip": 52150,
        "city": "CHAUMONT LA VILLE"
    },
    {
        "zip": 52200,
        "city": "LANGRES"
    },
    {
        "zip": 52200,
        "city": "SAINT MARTIN LES LANGRES"
    },
    {
        "zip": 52210,
        "city": "SAINT LOUP SUR AUJON"
    },
    {
        "zip": 52230,
        "city": "MONTREUIL SUR THONNANCE"
    },
    {
        "zip": 52300,
        "city": "SAINT URBAIN MACONCOURT"
    },
    {
        "zip": 52700,
        "city": "LAFAUCHE"
    },
    {
        "zip": 52700,
        "city": "ROCHEFORT SUR LA COTE"
    },
    {
        "zip": 53000,
        "city": "LAVAL"
    },
    {
        "zip": 53100,
        "city": "MAYENNE"
    },
    {
        "zip": 53110,
        "city": "RENNES EN GRENOUILLES"
    },
    {
        "zip": 53140,
        "city": "SAINT CALAIS DU DESERT"
    },
    {
        "zip": 53160,
        "city": "SAINT PIERRE SUR ORTHE"
    },
    {
        "zip": 53170,
        "city": "SAINT CHARLES LA FORET"
    },
    {
        "zip": 53170,
        "city": "SAINT DENIS DU MAINE"
    },
    {
        "zip": 53200,
        "city": "CHATEAU GONTIER SUR MAYENNE"
    },
    {
        "zip": 53240,
        "city": "SAINT JEAN SUR MAYENNE"
    },
    {
        "zip": 53270,
        "city": "SAINT PIERRE SUR ERVE"
    },
    {
        "zip": 53290,
        "city": "SAINT DENIS D'ANJOU"
    },
    {
        "zip": 53290,
        "city": "SAINT LOUP DU DORAT"
    },
    {
        "zip": 53300,
        "city": "SAINT LOUP DU GAST"
    },
    {
        "zip": 53370,
        "city": "SAINT PIERRE DES NIDS"
    },
    {
        "zip": 53390,
        "city": "LA ROUAUDIERE"
    },
    {
        "zip": 53400,
        "city": "SAINT QUENTIN LES ANGES"
    },
    {
        "zip": 53410,
        "city": "SAINT PIERRE LA COUR"
    },
    {
        "zip": 53500,
        "city": "SAINT DENIS DE GASTINES"
    },
    {
        "zip": 53500,
        "city": "SAINT PIERRE DES LANDES"
    },
    {
        "zip": 53640,
        "city": "MONTREUIL POULAY"
    },
    {
        "zip": 54000,
        "city": "NANCY"
    },
    {
        "zip": 54100,
        "city": "NANCY"
    },
    {
        "zip": 54112,
        "city": "VANNES LE CHATEL"
    },
    {
        "zip": 54150,
        "city": "VAL DE BRIEY"
    },
    {
        "zip": 54200,
        "city": "TOUL"
    },
    {
        "zip": 54300,
        "city": "LUNEVILLE"
    },
    {
        "zip": 54380,
        "city": "DIEULOUARD"
    },
    {
        "zip": 54410,
        "city": "LANEUVEVILLE DEVANT NANCY"
    },
    {
        "zip": 54790,
        "city": "VAL DE BRIEY"
    },
    {
        "zip": 54800,
        "city": "ABBEVILLE LES CONFLANS"
    },
    {
        "zip": 55000,
        "city": "BAR LE DUC"
    },
    {
        "zip": 55100,
        "city": "VERDUN"
    },
    {
        "zip": 55120,
        "city": "CLERMONT EN ARGONNE"
    },
    {
        "zip": 55120,
        "city": "LE CLAON"
    },
    {
        "zip": 55150,
        "city": "CHAUMONT DEVANT DAMVILLERS"
    },
    {
        "zip": 55200,
        "city": "COMMERCY"
    },
    {
        "zip": 55230,
        "city": "SAINT PIERREVILLERS"
    },
    {
        "zip": 55260,
        "city": "CHAUMONT SUR AIRE"
    },
    {
        "zip": 55260,
        "city": "LAVALLEE"
    },
    {
        "zip": 55260,
        "city": "NICEY SUR AIRE"
    },
    {
        "zip": 55320,
        "city": "DIEUE SUR MEUSE"
    },
    {
        "zip": 55400,
        "city": "DIEPPE SOUS DOUAUMONT"
    },
    {
        "zip": 55700,
        "city": "MOULINS ST HUBERT"
    },
    {
        "zip": 56000,
        "city": "VANNES"
    },
    {
        "zip": 56100,
        "city": "LORIENT"
    },
    {
        "zip": 56190,
        "city": "LA TRINITE SURZUR"
    },
    {
        "zip": 56220,
        "city": "ROCHEFORT EN TERRE"
    },
    {
        "zip": 56300,
        "city": "PONTIVY"
    },
    {
        "zip": 56380,
        "city": "SAINT MALO DE BEIGNON"
    },
    {
        "zip": 56430,
        "city": "SAINT BRIEUC DE MAURON"
    },
    {
        "zip": 56470,
        "city": "LA TRINITE SUR MER"
    },
    {
        "zip": 56490,
        "city": "LA TRINITE PORHOET"
    },
    {
        "zip": 56490,
        "city": "SAINT MALO DES TROIS FONTAINES"
    },
    {
        "zip": 56510,
        "city": "SAINT PIERRE QUIBERON"
    },
    {
        "zip": 56630,
        "city": "LANGONNET"
    },
    {
        "zip": 57000,
        "city": "METZ"
    },
    {
        "zip": 57050,
        "city": "METZ"
    },
    {
        "zip": 57070,
        "city": "METZ"
    },
    {
        "zip": 57070,
        "city": "SAINT JULIEN LES METZ"
    },
    {
        "zip": 57100,
        "city": "THIONVILLE"
    },
    {
        "zip": 57160,
        "city": "MOULINS LES METZ"
    },
    {
        "zip": 57200,
        "city": "SARREGUEMINES"
    },
    {
        "zip": 57260,
        "city": "DIEUZE"
    },
    {
        "zip": 57400,
        "city": "SARREBOURG"
    },
    {
        "zip": 57600,
        "city": "FORBACH"
    },
    {
        "zip": 57620,
        "city": "SAINT LOUIS LES BITCHE"
    },
    {
        "zip": 57670,
        "city": "MONTDIDIER"
    },
    {
        "zip": 57820,
        "city": "SAINT LOUIS"
    },
    {
        "zip": 57890,
        "city": "DIESEN"
    },
    {
        "zip": 57920,
        "city": "METZERESCHE"
    },
    {
        "zip": 57940,
        "city": "METZERVISSE"
    },
    {
        "zip": 57950,
        "city": "MONTIGNY LES METZ"
    },
    {
        "zip": 57980,
        "city": "DIEBLING"
    },
    {
        "zip": 57980,
        "city": "METZING"
    },
    {
        "zip": 58000,
        "city": "NEVERS"
    },
    {
        "zip": 58120,
        "city": "CHATEAU CHINON CAMPAGNE"
    },
    {
        "zip": 58120,
        "city": "CHATEAU CHINON VILLE"
    },
    {
        "zip": 58150,
        "city": "SAINT QUENTIN SUR NOHAIN"
    },
    {
        "zip": 58190,
        "city": "LA MAISON DIEU"
    },
    {
        "zip": 58190,
        "city": "METZ LE COMTE"
    },
    {
        "zip": 58190,
        "city": "SAINT DIDIER"
    },
    {
        "zip": 58200,
        "city": "COSNE COURS SUR LOIRE"
    },
    {
        "zip": 58200,
        "city": "SAINT LOUP"
    },
    {
        "zip": 58210,
        "city": "SAINT PIERRE DU MONT"
    },
    {
        "zip": 58230,
        "city": "MONTSAUCHE LES SETTONS"
    },
    {
        "zip": 58240,
        "city": "SAINT PIERRE LE MOUTIER"
    },
    {
        "zip": 58250,
        "city": "MONTAMBERT"
    },
    {
        "zip": 58290,
        "city": "MOULINS ENGILBERT"
    },
    {
        "zip": 58340,
        "city": "DIENNES AUBIGNY"
    },
    {
        "zip": 58350,
        "city": "SAINT MALO EN DONZIOIS"
    },
    {
        "zip": 58500,
        "city": "CLAMECY"
    },
    {
        "zip": 58800,
        "city": "MONTREUILLON"
    },
    {
        "zip": 59000,
        "city": "LILLE"
    },
    {
        "zip": 59140,
        "city": "DUNKERQUE"
    },
    {
        "zip": 59160,
        "city": "LILLE"
    },
    {
        "zip": 59240,
        "city": "DUNKERQUE"
    },
    {
        "zip": 59260,
        "city": "LILLE"
    },
    {
        "zip": 59273,
        "city": "PERONNE EN MELANTOIS"
    },
    {
        "zip": 59279,
        "city": "DUNKERQUE"
    },
    {
        "zip": 59292,
        "city": "SAINT HILAIRE LEZ CAMBRAI"
    },
    {
        "zip": 59300,
        "city": "VALENCIENNES"
    },
    {
        "zip": 59310,
        "city": "AUCHY LEZ ORCHIES"
    },
    {
        "zip": 59350,
        "city": "SAINT ANDRE LEZ LILLE"
    },
    {
        "zip": 59400,
        "city": "CAMBRAI"
    },
    {
        "zip": 59430,
        "city": "DUNKERQUE"
    },
    {
        "zip": 59440,
        "city": "AVESNES SUR HELPE"
    },
    {
        "zip": 59500,
        "city": "DOUAI"
    },
    {
        "zip": 59552,
        "city": "LAMBRES LEZ DOUAI"
    },
    {
        "zip": 59630,
        "city": "SAINT PIERRE BROUCK"
    },
    {
        "zip": 59640,
        "city": "DUNKERQUE"
    },
    {
        "zip": 59777,
        "city": "LILLE"
    },
    {
        "zip": 59800,
        "city": "LILLE"
    },
    {
        "zip": 60000,
        "city": "BEAUVAIS"
    },
    {
        "zip": 60130,
        "city": "VALESCOURT"
    },
    {
        "zip": 60134,
        "city": "MONTREUIL SUR THERAIN"
    },
    {
        "zip": 60200,
        "city": "COMPIEGNE"
    },
    {
        "zip": 60240,
        "city": "CHAUMONT EN VEXIN"
    },
    {
        "zip": 60300,
        "city": "SENLIS"
    },
    {
        "zip": 60350,
        "city": "SAINT ETIENNE ROILAYE"
    },
    {
        "zip": 60350,
        "city": "SAINT PIERRE LES BITRY"
    },
    {
        "zip": 60360,
        "city": "AUCHY LA MONTAGNE"
    },
    {
        "zip": 60380,
        "city": "FONTENAY TORCY"
    },
    {
        "zip": 60380,
        "city": "SAINT DENISCOURT"
    },
    {
        "zip": 60380,
        "city": "SAINT QUENTIN DES PRES"
    },
    {
        "zip": 60400,
        "city": "PONTOISE LES NOYON"
    },
    {
        "zip": 60480,
        "city": "ABBEVILLE ST LUCIEN"
    },
    {
        "zip": 60480,
        "city": "LA NEUVILLE ST PIERRE"
    },
    {
        "zip": 60480,
        "city": "MONTREUIL SUR BRECHE"
    },
    {
        "zip": 60490,
        "city": "BOULOGNE LA GRASSE"
    },
    {
        "zip": 60510,
        "city": "LA RUE ST PIERRE"
    },
    {
        "zip": 60510,
        "city": "LE FAY ST QUENTIN"
    },
    {
        "zip": 60520,
        "city": "THIERS SUR THEVE"
    },
    {
        "zip": 60530,
        "city": "DIEUDONNE"
    },
    {
        "zip": 60600,
        "city": "CLERMONT"
    },
    {
        "zip": 60650,
        "city": "SAINT PAUL"
    },
    {
        "zip": 60690,
        "city": "MARSEILLE EN BEAUVAISIS"
    },
    {
        "zip": 60730,
        "city": "LACHAPELLE ST PIERRE"
    },
    {
        "zip": 60850,
        "city": "SAINT PIERRE ES CHAMPS"
    },
    {
        "zip": 60860,
        "city": "SAINT OMER EN CHAUSSEE"
    },
    {
        "zip": 61000,
        "city": "ALENCON"
    },
    {
        "zip": 61100,
        "city": "AUBUSSON"
    },
    {
        "zip": 61100,
        "city": "SAINT PAUL"
    },
    {
        "zip": 61160,
        "city": "MONTREUIL LA CAMBE"
    },
    {
        "zip": 61160,
        "city": "SAINT LAMBERT SUR DIVE"
    },
    {
        "zip": 61200,
        "city": "ARGENTAN"
    },
    {
        "zip": 61200,
        "city": "MOULINS SUR ORNE"
    },
    {
        "zip": 61210,
        "city": "MONTREUIL AU HOULME"
    },
    {
        "zip": 61230,
        "city": "CHAUMONT"
    },
    {
        "zip": 61230,
        "city": "LA TRINITE DES LAITIERS"
    },
    {
        "zip": 61250,
        "city": "VALFRAMBERT"
    },
    {
        "zip": 61340,
        "city": "SAINT PIERRE LA BRUYERE"
    },
    {
        "zip": 61360,
        "city": "SAINT QUENTIN DE BLAVOU"
    },
    {
        "zip": 61370,
        "city": "SAINT PIERRE DES LOGES"
    },
    {
        "zip": 61380,
        "city": "MOULINS LA MARCHE"
    },
    {
        "zip": 61390,
        "city": "GAPREE"
    },
    {
        "zip": 61400,
        "city": "MORTAGNE AU PERCHE"
    },
    {
        "zip": 61400,
        "city": "SAINT DENIS SUR HUISNE"
    },
    {
        "zip": 61420,
        "city": "SAINT DENIS SUR SARTHON"
    },
    {
        "zip": 61790,
        "city": "SAINT PIERRE DU REGARD"
    },
    {
        "zip": 61800,
        "city": "SAINT PIERRE D'ENTREMONT"
    },
    {
        "zip": 61800,
        "city": "SAINT QUENTIN LES CHARDONNETS"
    },
    {
        "zip": 62000,
        "city": "ARRAS"
    },
    {
        "zip": 62100,
        "city": "CALAIS"
    },
    {
        "zip": 62124,
        "city": "METZ EN COUTURE"
    },
    {
        "zip": 62138,
        "city": "AUCHY LES MINES"
    },
    {
        "zip": 62158,
        "city": "LA CAUCHIE"
    },
    {
        "zip": 62162,
        "city": "SAINT OMER CAPELLE"
    },
    {
        "zip": 62170,
        "city": "LA MADELAINE SOUS MONTREUIL"
    },
    {
        "zip": 62170,
        "city": "MONTREUIL"
    },
    {
        "zip": 62190,
        "city": "AUCHY AU BOIS"
    },
    {
        "zip": 62190,
        "city": "LILLERS"
    },
    {
        "zip": 62200,
        "city": "BOULOGNE SUR MER"
    },
    {
        "zip": 62260,
        "city": "AUCHEL"
    },
    {
        "zip": 62300,
        "city": "LENS"
    },
    {
        "zip": 62310,
        "city": "SENLIS"
    },
    {
        "zip": 62310,
        "city": "TORCY"
    },
    {
        "zip": 62360,
        "city": "SAINT ETIENNE AU MONT"
    },
    {
        "zip": 62400,
        "city": "BETHUNE"
    },
    {
        "zip": 62450,
        "city": "AVESNES LES BAPAUME"
    },
    {
        "zip": 62460,
        "city": "DIEVAL"
    },
    {
        "zip": 62500,
        "city": "SAINT OMER"
    },
    {
        "zip": 62520,
        "city": "LE TOUQUET PARIS PLAGE"
    },
    {
        "zip": 62770,
        "city": "AUCHY LES HESDIN"
    },
    {
        "zip": 62810,
        "city": "LATTRE ST QUENTIN"
    },
    {
        "zip": 63000,
        "city": "CLERMONT FERRAND"
    },
    {
        "zip": 63100,
        "city": "CLERMONT FERRAND"
    },
    {
        "zip": 63120,
        "city": "AUBUSSON D'AUVERGNE"
    },
    {
        "zip": 63200,
        "city": "RIOM"
    },
    {
        "zip": 63200,
        "city": "SAINT BONNET PRES RIOM"
    },
    {
        "zip": 63210,
        "city": "ROCHEFORT MONTAGNE"
    },
    {
        "zip": 63210,
        "city": "SAINT PIERRE ROCHE"
    },
    {
        "zip": 63220,
        "city": "CHAUMONT LE BOURG"
    },
    {
        "zip": 63230,
        "city": "SAINT PIERRE LE CHASTEL"
    },
    {
        "zip": 63300,
        "city": "THIERS"
    },
    {
        "zip": 63310,
        "city": "SAINT DENIS COMBARNAZAT"
    },
    {
        "zip": 63320,
        "city": "MONTAIGUT LE BLANC"
    },
    {
        "zip": 63320,
        "city": "SAINT DIERY"
    },
    {
        "zip": 63380,
        "city": "SAINT ETIENNE DES CHAMPS"
    },
    {
        "zip": 63480,
        "city": "SAINT PIERRE LA BOURLHONNE"
    },
    {
        "zip": 63490,
        "city": "SAINT QUENTIN SUR SAUXILLANGES"
    },
    {
        "zip": 63500,
        "city": "ISSOIRE"
    },
    {
        "zip": 63520,
        "city": "SAINT DIER D'AUVERGNE"
    },
    {
        "zip": 63520,
        "city": "SAINT FLOUR L ETANG"
    },
    {
        "zip": 63580,
        "city": "SAINT ETIENNE SUR USSON"
    },
    {
        "zip": 63590,
        "city": "TOURS SUR MEYMONT"
    },
    {
        "zip": 63600,
        "city": "AMBERT"
    },
    {
        "zip": 63610,
        "city": "SAINT PIERRE COLAMINE"
    },
    {
        "zip": 63930,
        "city": "LA RENAUDIE"
    },
    {
        "zip": 64000,
        "city": "PAU"
    },
    {
        "zip": 64100,
        "city": "BAYONNE"
    },
    {
        "zip": 64130,
        "city": "ARRAST LARREBIEU"
    },
    {
        "zip": 64300,
        "city": "SAINT GIRONS EN BEARN"
    },
    {
        "zip": 64390,
        "city": "SAINT GLADIE ARRIVE MUNEIN"
    },
    {
        "zip": 64400,
        "city": "OLORON STE MARIE"
    },
    {
        "zip": 64430,
        "city": "SAINT ETIENNE DE BAIGORRY"
    },
    {
        "zip": 64990,
        "city": "SAINT PIERRE D'IRUBE"
    },
    {
        "zip": 65000,
        "city": "TARBES"
    },
    {
        "zip": 65100,
        "city": "BARLEST"
    },
    {
        "zip": 65150,
        "city": "SAINT PAUL"
    },
    {
        "zip": 65200,
        "city": "BAGNERES DE BIGORRE"
    },
    {
        "zip": 65400,
        "city": "ARGELES GAZOST"
    },
    {
        "zip": 65400,
        "city": "ARRAS EN LAVEDAN"
    },
    {
        "zip": 65670,
        "city": "LASSALES"
    },
    {
        "zip": 65710,
        "city": "BAGNERES DE BIGORRE"
    },
    {
        "zip": 66000,
        "city": "PERPIGNAN"
    },
    {
        "zip": 66100,
        "city": "PERPIGNAN"
    },
    {
        "zip": 66150,
        "city": "ARLES SUR TECH"
    },
    {
        "zip": 66210,
        "city": "SAINT PIERRE DELS FORCATS"
    },
    {
        "zip": 66220,
        "city": "SAINT PAUL DE FENOUILLET"
    },
    {
        "zip": 66350,
        "city": "TOULOUGES"
    },
    {
        "zip": 66400,
        "city": "CERET"
    },
    {
        "zip": 66500,
        "city": "PRADES"
    },
    {
        "zip": 66570,
        "city": "SAINT NAZAIRE"
    },
    {
        "zip": 66800,
        "city": "STE LEOCADIE"
    },
    {
        "zip": 67000,
        "city": "STRASBOURG"
    },
    {
        "zip": 67100,
        "city": "STRASBOURG"
    },
    {
        "zip": 67120,
        "city": "MOLSHEIM"
    },
    {
        "zip": 67140,
        "city": "SAINT PIERRE"
    },
    {
        "zip": 67200,
        "city": "STRASBOURG"
    },
    {
        "zip": 67220,
        "city": "DIEFFENBACH AU VAL"
    },
    {
        "zip": 67220,
        "city": "SAINT PIERRE BOIS"
    },
    {
        "zip": 67230,
        "city": "DIEBOLSHEIM"
    },
    {
        "zip": 67260,
        "city": "DIEDENDORF"
    },
    {
        "zip": 67350,
        "city": "GRASSENDORF"
    },
    {
        "zip": 67360,
        "city": "DIEFFENBACH LES WOERTH"
    },
    {
        "zip": 67430,
        "city": "DIEMERINGEN"
    },
    {
        "zip": 67500,
        "city": "HAGUENAU"
    },
    {
        "zip": 67600,
        "city": "SELESTAT"
    },
    {
        "zip": 67650,
        "city": "DIEFFENTHAL"
    },
    {
        "zip": 67700,
        "city": "SAVERNE"
    },
    {
        "zip": 67700,
        "city": "SAINT JEAN SAVERNE"
    },
    {
        "zip": 68000,
        "city": "COLMAR"
    },
    {
        "zip": 68100,
        "city": "MULHOUSE"
    },
    {
        "zip": 68130,
        "city": "ALTKIRCH"
    },
    {
        "zip": 68200,
        "city": "MULHOUSE"
    },
    {
        "zip": 68210,
        "city": "VALDIEU LUTRAN"
    },
    {
        "zip": 68300,
        "city": "SAINT LOUIS"
    },
    {
        "zip": 68380,
        "city": "METZERAL"
    },
    {
        "zip": 68440,
        "city": "DIETWILLER"
    },
    {
        "zip": 68590,
        "city": "THANNENKIRCH"
    },
    {
        "zip": 68780,
        "city": "DIEFMATTEN"
    },
    {
        "zip": 68800,
        "city": "THANN"
    },
    {
        "zip": 69001,
        "city": "LYON 01"
    },
    {
        "zip": 69002,
        "city": "LYON 02"
    },
    {
        "zip": 69003,
        "city": "LYON 03"
    },
    {
        "zip": 69004,
        "city": "LYON 04"
    },
    {
        "zip": 69005,
        "city": "LYON 05"
    },
    {
        "zip": 69006,
        "city": "LYON 06"
    },
    {
        "zip": 69007,
        "city": "LYON 07"
    },
    {
        "zip": 69008,
        "city": "LYON 08"
    },
    {
        "zip": 69009,
        "city": "LYON 09"
    },
    {
        "zip": 69110,
        "city": "STE FOY LES LYON"
    },
    {
        "zip": 69170,
        "city": "DIEME"
    },
    {
        "zip": 69210,
        "city": "SAINT PIERRE LA PALUD"
    },
    {
        "zip": 69230,
        "city": "SAINT GENIS LAVAL"
    },
    {
        "zip": 69250,
        "city": "ALBIGNY SUR SAONE"
    },
    {
        "zip": 69370,
        "city": "SAINT DIDIER AU MONT D'OR"
    },
    {
        "zip": 69400,
        "city": "VILLEFRANCHE SUR SAONE"
    },
    {
        "zip": 69430,
        "city": "SAINT DIDIER SUR BEAUJEU"
    },
    {
        "zip": 69460,
        "city": "SAINT ETIENNE DES OULLIERES"
    },
    {
        "zip": 69460,
        "city": "SAINT ETIENNE LA VARENNE"
    },
    {
        "zip": 69550,
        "city": "MEAUX LA MONTAGNE"
    },
    {
        "zip": 69620,
        "city": "STE PAULE"
    },
    {
        "zip": 69780,
        "city": "SAINT PIERRE DE CHANDIEU"
    },
    {
        "zip": 70000,
        "city": "MONTIGNY LES VESOUL"
    },
    {
        "zip": 70000,
        "city": "VESOUL"
    },
    {
        "zip": 70100,
        "city": "LE TREMBLOIS"
    },
    {
        "zip": 70100,
        "city": "SAINT LOUP NANTOUARD"
    },
    {
        "zip": 70120,
        "city": "LA ROCHELLE"
    },
    {
        "zip": 70160,
        "city": "LA VILLEDIEU EN FONTENETTE"
    },
    {
        "zip": 70200,
        "city": "LA NEUVELLE LES LURE"
    },
    {
        "zip": 70200,
        "city": "LURE"
    },
    {
        "zip": 70800,
        "city": "SAINT LOUP SUR SEMOUSE"
    },
    {
        "zip": 71000,
        "city": "MACON"
    },
    {
        "zip": 71100,
        "city": "CHALON SUR SAONE"
    },
    {
        "zip": 71110,
        "city": "SAINT DIDIER EN BRIONNAIS"
    },
    {
        "zip": 71120,
        "city": "CHAROLLES"
    },
    {
        "zip": 71150,
        "city": "PARIS L HOPITAL"
    },
    {
        "zip": 71190,
        "city": "SAINT DIDIER SUR ARROUX"
    },
    {
        "zip": 71210,
        "city": "TORCY"
    },
    {
        "zip": 71230,
        "city": "SAINT ROMAIN SOUS GOURDON"
    },
    {
        "zip": 71240,
        "city": "SAINT LOUP DE VARENNES"
    },
    {
        "zip": 71260,
        "city": "PERONNE"
    },
    {
        "zip": 71300,
        "city": "GOURDON"
    },
    {
        "zip": 71320,
        "city": "TOULON SUR ARROUX"
    },
    {
        "zip": 71330,
        "city": "SENS SUR SEILLE"
    },
    {
        "zip": 71350,
        "city": "SAINT LOUP GEANGES"
    },
    {
        "zip": 71350,
        "city": "VERDUN SUR LE DOUBS"
    },
    {
        "zip": 71370,
        "city": "SAINT ETIENNE EN BRESSE"
    },
    {
        "zip": 71400,
        "city": "AUTUN"
    },
    {
        "zip": 71460,
        "city": "CORTEVAIX"
    },
    {
        "zip": 71500,
        "city": "LOUHANS"
    },
    {
        "zip": 71500,
        "city": "MONTAGNY PRES LOUHANS"
    },
    {
        "zip": 71520,
        "city": "SAINT PIERRE LE VIEUX"
    },
    {
        "zip": 71620,
        "city": "SAINT DIDIER EN BRESSE"
    },
    {
        "zip": 71640,
        "city": "SAINT DENIS DE VAUX"
    },
    {
        "zip": 71670,
        "city": "SAINT PIERRE DE VARENNES"
    },
    {
        "zip": 72000,
        "city": "LE MANS"
    },
    {
        "zip": 72100,
        "city": "LE MANS"
    },
    {
        "zip": 72110,
        "city": "SAINT DENIS DES COUDRAIS"
    },
    {
        "zip": 72120,
        "city": "SAINT CALAIS"
    },
    {
        "zip": 72130,
        "city": "MONTREUIL LE CHETIF"
    },
    {
        "zip": 72130,
        "city": "MOULINS LE CARBONNEL"
    },
    {
        "zip": 72130,
        "city": "SAINT PAUL LE GAULTIER"
    },
    {
        "zip": 72150,
        "city": "MONTREUIL LE HENRI"
    },
    {
        "zip": 72150,
        "city": "SAINT PIERRE DU LOROUER"
    },
    {
        "zip": 72200,
        "city": "CLERMONT CREANS"
    },
    {
        "zip": 72200,
        "city": "LA FLECHE"
    },
    {
        "zip": 72240,
        "city": "BERNAY NEUVY EN CHAMPAGNE"
    },
    {
        "zip": 72350,
        "city": "SAINT DENIS D'ORQUES"
    },
    {
        "zip": 72430,
        "city": "SAINT PIERRE DES BOIS"
    },
    {
        "zip": 72500,
        "city": "SAINT PIERRE DE CHEVILLE"
    },
    {
        "zip": 72600,
        "city": "MAMERS"
    },
    {
        "zip": 72600,
        "city": "SAINT LONGIS"
    },
    {
        "zip": 72600,
        "city": "SAINT PIERRE DES ORMES"
    },
    {
        "zip": 73000,
        "city": "BASSENS"
    },
    {
        "zip": 73000,
        "city": "CHAMBERY"
    },
    {
        "zip": 73110,
        "city": "LA CHAPELLE BLANCHE"
    },
    {
        "zip": 73110,
        "city": "LA TRINITE"
    },
    {
        "zip": 73130,
        "city": "SAINT ETIENNE DE CUINES"
    },
    {
        "zip": 73170,
        "city": "SAINT PAUL"
    },
    {
        "zip": 73170,
        "city": "SAINT PIERRE D'ALVEY"
    },
    {
        "zip": 73200,
        "city": "ALBERTVILLE"
    },
    {
        "zip": 73220,
        "city": "SAINT PIERRE DE BELLEVILLE"
    },
    {
        "zip": 73240,
        "city": "ROCHEFORT"
    },
    {
        "zip": 73250,
        "city": "SAINT PIERRE D'ALBIGNY"
    },
    {
        "zip": 73300,
        "city": "ALBIEZ LE JEUNE"
    },
    {
        "zip": 73300,
        "city": "ALBIEZ MONTROND"
    },
    {
        "zip": 73300,
        "city": "SAINT JEAN DE MAURIENNE"
    },
    {
        "zip": 73310,
        "city": "SAINT PIERRE DE CURTILLE"
    },
    {
        "zip": 73340,
        "city": "SAINT FRANCOIS DE SALES"
    },
    {
        "zip": 73360,
        "city": "LA BAUCHE"
    },
    {
        "zip": 73360,
        "city": "SAINT PIERRE DE GENEBROZ"
    },
    {
        "zip": 73660,
        "city": "LES CHAVANNES EN MAURIENNE"
    },
    {
        "zip": 73670,
        "city": "SAINT PIERRE D'ENTREMONT"
    },
    {
        "zip": 73730,
        "city": "SAINT PAUL SUR ISERE"
    },
    {
        "zip": 73790,
        "city": "TOURS EN SAVOIE"
    },
    {
        "zip": 73800,
        "city": "SAINT PIERRE DE SOUCY"
    },
    {
        "zip": 74000,
        "city": "ANNECY"
    },
    {
        "zip": 74130,
        "city": "BONNEVILLE"
    },
    {
        "zip": 74160,
        "city": "SAINT JULIEN EN GENEVOIS"
    },
    {
        "zip": 74200,
        "city": "THONON LES BAINS"
    },
    {
        "zip": 74270,
        "city": "CHAUMONT"
    },
    {
        "zip": 74270,
        "city": "CLERMONT"
    },
    {
        "zip": 74300,
        "city": "NANCY SUR CLUSES"
    },
    {
        "zip": 74370,
        "city": "ANNECY"
    },
    {
        "zip": 74500,
        "city": "SAINT PAUL EN CHABLAIS"
    },
    {
        "zip": 74600,
        "city": "ANNECY"
    },
    {
        "zip": 74800,
        "city": "SAINT PIERRE EN FAUCIGNY"
    },
    {
        "zip": 74940,
        "city": "ANNECY"
    },
    {
        "zip": 74960,
        "city": "ANNECY"
    },
    {
        "zip": 75001,
        "city": "PARIS 01"
    },
    {
        "zip": 75002,
        "city": "PARIS 02"
    },
    {
        "zip": 75003,
        "city": "PARIS 03"
    },
    {
        "zip": 75004,
        "city": "PARIS 04"
    },
    {
        "zip": 75005,
        "city": "PARIS 05"
    },
    {
        "zip": 75006,
        "city": "PARIS 06"
    },
    {
        "zip": 75007,
        "city": "PARIS 07"
    },
    {
        "zip": 75008,
        "city": "PARIS 08"
    },
    {
        "zip": 75009,
        "city": "PARIS 09"
    },
    {
        "zip": 75010,
        "city": "PARIS 10"
    },
    {
        "zip": 75011,
        "city": "PARIS 11"
    },
    {
        "zip": 75012,
        "city": "PARIS 12"
    },
    {
        "zip": 75013,
        "city": "PARIS 13"
    },
    {
        "zip": 75014,
        "city": "PARIS 14"
    },
    {
        "zip": 75015,
        "city": "PARIS 15"
    },
    {
        "zip": 75016,
        "city": "PARIS 16"
    },
    {
        "zip": 75017,
        "city": "PARIS 17"
    },
    {
        "zip": 75018,
        "city": "PARIS 18"
    },
    {
        "zip": 75019,
        "city": "PARIS 19"
    },
    {
        "zip": 75020,
        "city": "PARIS 20"
    },
    {
        "zip": 75116,
        "city": "PARIS 16"
    },
    {
        "zip": 76000,
        "city": "ROUEN"
    },
    {
        "zip": 76100,
        "city": "ROUEN"
    },
    {
        "zip": 76113,
        "city": "SAINT PIERRE DE MANNEVILLE"
    },
    {
        "zip": 76116,
        "city": "SAINT DENIS LE THIBOULT"
    },
    {
        "zip": 76170,
        "city": "LA TRINITE DU MONT"
    },
    {
        "zip": 76170,
        "city": "LILLEBONNE"
    },
    {
        "zip": 76200,
        "city": "DIEPPE"
    },
    {
        "zip": 76260,
        "city": "SAINT PIERRE EN VAL"
    },
    {
        "zip": 76320,
        "city": "SAINT PIERRE LES ELBEUF"
    },
    {
        "zip": 76370,
        "city": "DIEPPE"
    },
    {
        "zip": 76440,
        "city": "SAINT MICHEL D'HALESCOURT"
    },
    {
        "zip": 76450,
        "city": "SAINT VAAST DIEPPEDALLE"
    },
    {
        "zip": 76480,
        "city": "SAINT PIERRE DE VARENGEVILLE"
    },
    {
        "zip": 76540,
        "city": "SAINT PIERRE EN PORT"
    },
    {
        "zip": 76590,
        "city": "TORCY LE GRAND"
    },
    {
        "zip": 76590,
        "city": "TORCY LE PETIT"
    },
    {
        "zip": 76600,
        "city": "LE HAVRE"
    },
    {
        "zip": 76610,
        "city": "LE HAVRE"
    },
    {
        "zip": 76620,
        "city": "LE HAVRE"
    },
    {
        "zip": 76660,
        "city": "SAINT PIERRE DES JONQUIERES"
    },
    {
        "zip": 76690,
        "city": "LA RUE ST PIERRE"
    },
    {
        "zip": 76740,
        "city": "SAINT PIERRE LE VIEUX"
    },
    {
        "zip": 76740,
        "city": "SAINT PIERRE LE VIGER"
    },
    {
        "zip": 76790,
        "city": "BORDEAUX ST CLAIR"
    },
    {
        "zip": 76800,
        "city": "SAINT ETIENNE DU ROUVRAY"
    },
    {
        "zip": 76850,
        "city": "MONTREUIL EN CAUX"
    },
    {
        "zip": 76860,
        "city": "SAINT DENIS D'ACLON"
    },
    {
        "zip": 76890,
        "city": "SAINT DENIS SUR SCIE"
    },
    {
        "zip": 76890,
        "city": "SAINT PIERRE BENOUVILLE"
    },
    {
        "zip": 77000,
        "city": "MELUN"
    },
    {
        "zip": 77100,
        "city": "MEAUX"
    },
    {
        "zip": 77130,
        "city": "SAINT GERMAIN LAVAL"
    },
    {
        "zip": 77140,
        "city": "SAINT PIERRE LES NEMOURS"
    },
    {
        "zip": 77148,
        "city": "LAVAL EN BRIE"
    },
    {
        "zip": 77151,
        "city": "MONTCEAUX LES PROVINS"
    },
    {
        "zip": 77160,
        "city": "PROVINS"
    },
    {
        "zip": 77174,
        "city": "VILLENEUVE ST DENIS"
    },
    {
        "zip": 77200,
        "city": "TORCY"
    },
    {
        "zip": 77300,
        "city": "FONTAINEBLEAU"
    },
    {
        "zip": 77320,
        "city": "LA FERTE GAUCHER"
    },
    {
        "zip": 77470,
        "city": "MONTCEAUX LES MEAUX"
    },
    {
        "zip": 77480,
        "city": "MONTIGNY LE GUESDIER"
    },
    {
        "zip": 77510,
        "city": "SAINT DENIS LES REBAIS"
    },
    {
        "zip": 77540,
        "city": "BERNAY VILBERT"
    },
    {
        "zip": 77550,
        "city": "LIMOGES FOURCHES"
    },
    {
        "zip": 77650,
        "city": "SAINT LOUP DE NAUD"
    },
    {
        "zip": 77660,
        "city": "SAINT JEAN LES DEUX JUMEAUX"
    },
    {
        "zip": 77820,
        "city": "LES ECRENNES"
    },
    {
        "zip": 77830,
        "city": "VALENCE EN BRIE"
    },
    {
        "zip": 78000,
        "city": "VERSAILLES"
    },
    {
        "zip": 78100,
        "city": "SAINT GERMAIN EN LAYE"
    },
    {
        "zip": 78112,
        "city": "SAINT GERMAIN EN LAYE"
    },
    {
        "zip": 78120,
        "city": "RAMBOUILLET"
    },
    {
        "zip": 78200,
        "city": "MANTES LA JOLIE"
    },
    {
        "zip": 78320,
        "city": "LE MESNIL ST DENIS"
    },
    {
        "zip": 78470,
        "city": "SAINT LAMBERT"
    },
    {
        "zip": 78720,
        "city": "SENLISSE"
    },
    {
        "zip": 78730,
        "city": "ROCHEFORT EN YVELINES"
    },
    {
        "zip": 78980,
        "city": "LE TERTRE ST DENIS"
    },
    {
        "zip": 79000,
        "city": "NIORT"
    },
    {
        "zip": 79100,
        "city": "SAINT MARTIN DE MACON"
    },
    {
        "zip": 79200,
        "city": "PARTHENAY"
    },
    {
        "zip": 79240,
        "city": "SAINT PAUL EN GATINE"
    },
    {
        "zip": 79300,
        "city": "BRESSUIRE"
    },
    {
        "zip": 79390,
        "city": "LA FERRIERE EN PARTHENAY"
    },
    {
        "zip": 79500,
        "city": "SAINT VINCENT LA CHATRE"
    },
    {
        "zip": 79600,
        "city": "SAINT LOUP LAMAIRE"
    },
    {
        "zip": 79700,
        "city": "SAINT PIERRE DES ECHAUBROGNES"
    },
    {
        "zip": 80000,
        "city": "AMIENS"
    },
    {
        "zip": 80080,
        "city": "AMIENS"
    },
    {
        "zip": 80090,
        "city": "AMIENS"
    },
    {
        "zip": 80100,
        "city": "ABBEVILLE"
    },
    {
        "zip": 80120,
        "city": "BERNAY EN PONTHIEU"
    },
    {
        "zip": 80120,
        "city": "SAINT QUENTIN EN TOURMONT"
    },
    {
        "zip": 80150,
        "city": "AGENVILLERS"
    },
    {
        "zip": 80150,
        "city": "GAPENNES"
    },
    {
        "zip": 80200,
        "city": "PERONNE"
    },
    {
        "zip": 80210,
        "city": "TOURS EN VIMEU"
    },
    {
        "zip": 80300,
        "city": "MONTAUBAN DE PICARDIE"
    },
    {
        "zip": 80300,
        "city": "SENLIS LE SEC"
    },
    {
        "zip": 80370,
        "city": "AGENVILLE"
    },
    {
        "zip": 80500,
        "city": "MONTDIDIER"
    },
    {
        "zip": 80560,
        "city": "AUCHONVILLERS"
    },
    {
        "zip": 80670,
        "city": "BONNEVILLE"
    },
    {
        "zip": 80880,
        "city": "SAINT QUENTIN LA MOTTE CROIX AU BAILLY"
    },
    {
        "zip": 81000,
        "city": "ALBI"
    },
    {
        "zip": 81100,
        "city": "CASTRES"
    },
    {
        "zip": 81140,
        "city": "LE VERDIER"
    },
    {
        "zip": 81220,
        "city": "PRADES"
    },
    {
        "zip": 81220,
        "city": "SAINT PAUL CAP DE JOUX"
    },
    {
        "zip": 81240,
        "city": "ALBINE"
    },
    {
        "zip": 81250,
        "city": "PAULINET"
    },
    {
        "zip": 81310,
        "city": "PARISOT"
    },
    {
        "zip": 81330,
        "city": "SAINT PIERRE DE TRIVISY"
    },
    {
        "zip": 81340,
        "city": "SAINT MICHEL LABADIE"
    },
    {
        "zip": 81340,
        "city": "VALENCE D'ALBIGEOIS"
    },
    {
        "zip": 81360,
        "city": "MONTREDON LABESSONNIE"
    },
    {
        "zip": 81380,
        "city": "LESCURE D'ALBIGEOIS"
    },
    {
        "zip": 81400,
        "city": "BLAYE LES MINES"
    },
    {
        "zip": 81400,
        "city": "SAINT BENOIT DE CARMAUX"
    },
    {
        "zip": 81430,
        "city": "VILLEFRANCHE D'ALBIGEOIS"
    },
    {
        "zip": 81630,
        "city": "BEAUVAIS SUR TESCOU"
    },
    {
        "zip": 81700,
        "city": "LEMPAUT"
    },
    {
        "zip": 82000,
        "city": "MONTAUBAN"
    },
    {
        "zip": 82100,
        "city": "CASTELSARRASIN"
    },
    {
        "zip": 82160,
        "city": "PARISOT"
    },
    {
        "zip": 82170,
        "city": "DIEUPENTALE"
    },
    {
        "zip": 82190,
        "city": "SAINT NAZAIRE DE VALENTANE"
    },
    {
        "zip": 82290,
        "city": "LACOURT ST PIERRE"
    },
    {
        "zip": 82290,
        "city": "LA VILLE DIEU DU TEMPLE"
    },
    {
        "zip": 82340,
        "city": "SAINT LOUP"
    },
    {
        "zip": 82350,
        "city": "ALBIAS"
    },
    {
        "zip": 82370,
        "city": "LABASTIDE ST PIERRE"
    },
    {
        "zip": 82400,
        "city": "SAINT PAUL D'ESPIS"
    },
    {
        "zip": 82400,
        "city": "VALENCE"
    },
    {
        "zip": 82410,
        "city": "SAINT ETIENNE DE TULMONT"
    },
    {
        "zip": 82600,
        "city": "VERDUN SUR GARONNE"
    },
    {
        "zip": 83000,
        "city": "TOULON"
    },
    {
        "zip": 83100,
        "city": "TOULON"
    },
    {
        "zip": 83170,
        "city": "BRIGNOLES"
    },
    {
        "zip": 83200,
        "city": "TOULON"
    },
    {
        "zip": 83300,
        "city": "DRAGUIGNAN"
    },
    {
        "zip": 83440,
        "city": "SAINT PAUL EN FORET"
    },
    {
        "zip": 83560,
        "city": "LA VERDIERE"
    },
    {
        "zip": 83740,
        "city": "LA CADIERE D'AZUR"
    },
    {
        "zip": 84000,
        "city": "AVIGNON"
    },
    {
        "zip": 84140,
        "city": "AVIGNON"
    },
    {
        "zip": 84200,
        "city": "CARPENTRAS"
    },
    {
        "zip": 84210,
        "city": "SAINT DIDIER"
    },
    {
        "zip": 84330,
        "city": "SAINT PIERRE DE VASSOLS"
    },
    {
        "zip": 84400,
        "city": "APT"
    },
    {
        "zip": 84400,
        "city": "LAGARDE D'APT"
    },
    {
        "zip": 84450,
        "city": "SAINT SATURNIN LES AVIGNON"
    },
    {
        "zip": 84490,
        "city": "SAINT SATURNIN LES APT"
    },
    {
        "zip": 85000,
        "city": "LA ROCHE SUR YON"
    },
    {
        "zip": 85100,
        "city": "LES SABLES D'OLONNE"
    },
    {
        "zip": 85120,
        "city": "LA TARDIERE"
    },
    {
        "zip": 85120,
        "city": "SAINT PIERRE DU CHEMIN"
    },
    {
        "zip": 85130,
        "city": "SAINT AUBIN DES ORMEAUX"
    },
    {
        "zip": 85170,
        "city": "SAINT DENIS LA CHEVASSE"
    },
    {
        "zip": 85180,
        "city": "LES SABLES D'OLONNE"
    },
    {
        "zip": 85200,
        "city": "AUCHAY SUR VENDEE"
    },
    {
        "zip": 85200,
        "city": "FONTENAY LE COMTE"
    },
    {
        "zip": 85200,
        "city": "MONTREUIL"
    },
    {
        "zip": 85210,
        "city": "SAINT ETIENNE DE BRILLOUET"
    },
    {
        "zip": 85340,
        "city": "LES SABLES D'OLONNE"
    },
    {
        "zip": 85370,
        "city": "LE LANGON"
    },
    {
        "zip": 85420,
        "city": "SAINT PIERRE LE VIEUX"
    },
    {
        "zip": 85500,
        "city": "SAINT PAUL EN PAREDS"
    },
    {
        "zip": 85580,
        "city": "SAINT DENIS DU PAYRE"
    },
    {
        "zip": 85590,
        "city": "SAINT MALO DU BOIS"
    },
    {
        "zip": 85610,
        "city": "LA BERNARDIERE"
    },
    {
        "zip": 85670,
        "city": "SAINT ETIENNE DU BOIS"
    },
    {
        "zip": 85670,
        "city": "SAINT PAUL MONT PENIT"
    },
    {
        "zip": 86000,
        "city": "POITIERS"
    },
    {
        "zip": 86100,
        "city": "CHATELLERAULT"
    },
    {
        "zip": 86110,
        "city": "LA GRIMAUDIERE"
    },
    {
        "zip": 86200,
        "city": "SAINT LAON"
    },
    {
        "zip": 86260,
        "city": "SAINT PIERRE DE MAILLE"
    },
    {
        "zip": 86280,
        "city": "SAINT BENOIT"
    },
    {
        "zip": 86300,
        "city": "LAUTHIERS"
    },
    {
        "zip": 86300,
        "city": "VALDIVIENNE"
    },
    {
        "zip": 86330,
        "city": "LA GRIMAUDIERE"
    },
    {
        "zip": 86340,
        "city": "LA VILLEDIEU DU CLAIN"
    },
    {
        "zip": 86400,
        "city": "SAINT PIERRE D'EXIDEUIL"
    },
    {
        "zip": 86410,
        "city": "DIENNE"
    },
    {
        "zip": 86500,
        "city": "MONTMORILLON"
    },
    {
        "zip": 86700,
        "city": "VALENCE EN POITOU"
    },
    {
        "zip": 87000,
        "city": "LIMOGES"
    },
    {
        "zip": 87100,
        "city": "LIMOGES"
    },
    {
        "zip": 87200,
        "city": "SAINT BRICE SUR VIENNE"
    },
    {
        "zip": 87260,
        "city": "SAINT PAUL"
    },
    {
        "zip": 87280,
        "city": "LIMOGES"
    },
    {
        "zip": 87300,
        "city": "BELLAC"
    },
    {
        "zip": 87300,
        "city": "SAINT BONNET DE BELLAC"
    },
    {
        "zip": 87310,
        "city": "COGNAC LA FORET"
    },
    {
        "zip": 87330,
        "city": "VAL D'ISSOIRE"
    },
    {
        "zip": 87400,
        "city": "SAINT DENIS DES MURS"
    },
    {
        "zip": 87410,
        "city": "LE PALAIS SUR VIENNE"
    },
    {
        "zip": 87600,
        "city": "ROCHECHOUART"
    },
    {
        "zip": 87700,
        "city": "AIXE SUR VIENNE"
    },
    {
        "zip": 88000,
        "city": "EPINAL"
    },
    {
        "zip": 88100,
        "city": "SAINT DIE DES VOSGES"
    },
    {
        "zip": 88170,
        "city": "MACONCOURT"
    },
    {
        "zip": 88170,
        "city": "SAINT PAUL"
    },
    {
        "zip": 88200,
        "city": "SAINT ETIENNE LES REMIREMONT"
    },
    {
        "zip": 88300,
        "city": "MONT LES NEUFCHATEAU"
    },
    {
        "zip": 88300,
        "city": "NEUFCHATEAU"
    },
    {
        "zip": 88600,
        "city": "LAVAL SUR VOLOGNE"
    },
    {
        "zip": 88700,
        "city": "SAINT BENOIT LA CHIPOTTE"
    },
    {
        "zip": 88700,
        "city": "SAINT PIERREMONT"
    },
    {
        "zip": 89000,
        "city": "AUXERRE"
    },
    {
        "zip": 89100,
        "city": "SENS"
    },
    {
        "zip": 89100,
        "city": "SAINT DENIS LES SENS"
    },
    {
        "zip": 89130,
        "city": "MOULINS SUR OUANNE"
    },
    {
        "zip": 89160,
        "city": "ARGENTEUIL SUR ARMANCON"
    },
    {
        "zip": 89200,
        "city": "AVALLON"
    },
    {
        "zip": 89290,
        "city": "AUXERRE"
    },
    {
        "zip": 89310,
        "city": "MOULINS EN TONNERROIS"
    },
    {
        "zip": 89330,
        "city": "SAINT LOUP D'ORDON"
    },
    {
        "zip": 89340,
        "city": "CHAUMONT"
    },
    {
        "zip": 90000,
        "city": "BELFORT"
    },
    {
        "zip": 90100,
        "city": "SAINT DIZIER L EVEQUE"
    },
    {
        "zip": 91000,
        "city": "EVRY COURCOURONNES"
    },
    {
        "zip": 91080,
        "city": "EVRY COURCOURONNES"
    },
    {
        "zip": 91120,
        "city": "PALAISEAU"
    },
    {
        "zip": 91150,
        "city": "ABBEVILLE LA RIVIERE"
    },
    {
        "zip": 91150,
        "city": "ETAMPES"
    },
    {
        "zip": 91280,
        "city": "SAINT PIERRE DU PERRAY"
    },
    {
        "zip": 92000,
        "city": "NANTERRE"
    },
    {
        "zip": 92100,
        "city": "BOULOGNE BILLANCOURT"
    },
    {
        "zip": 92160,
        "city": "ANTONY"
    },
    {
        "zip": 93000,
        "city": "BOBIGNY"
    },
    {
        "zip": 93100,
        "city": "MONTREUIL"
    },
    {
        "zip": 93150,
        "city": "LE BLANC MESNIL"
    },
    {
        "zip": 93200,
        "city": "SAINT DENIS"
    },
    {
        "zip": 93210,
        "city": "SAINT DENIS"
    },
    {
        "zip": 93340,
        "city": "LE RAINCY"
    },
    {
        "zip": 94000,
        "city": "CRETEIL"
    },
    {
        "zip": 94130,
        "city": "NOGENT SUR MARNE"
    },
    {
        "zip": 95000,
        "city": "CERGY"
    },
    {
        "zip": 95100,
        "city": "ARGENTEUIL"
    },
    {
        "zip": 95190,
        "city": "FONTENAY EN PARISIS"
    },
    {
        "zip": 95200,
        "city": "SARCELLES"
    },
    {
        "zip": 95270,
        "city": "CHAUMONTEL"
    },
    {
        "zip": 95510,
        "city": "VIENNE EN ARTHIES"
    },
    {
        "zip": 95690,
        "city": "LABBEVILLE"
    },
    {
        "zip": 95770,
        "city": "MONTREUIL SUR EPTE"
    },
    {
        "zip": 95800,
        "city": "CERGY"
    },
    {
        "zip": 97100,
        "city": "BASSE TERRE"
    },
    {
        "zip": 97120,
        "city": "SAINT CLAUDE"
    },
    {
        "zip": 97134,
        "city": "SAINT LOUIS"
    },
    {
        "zip": 97200,
        "city": "FORT DE FRANCE"
    },
    {
        "zip": 97220,
        "city": "LA TRINITE"
    },
    {
        "zip": 97234,
        "city": "FORT DE FRANCE"
    },
    {
        "zip": 97250,
        "city": "SAINT PIERRE"
    },
    {
        "zip": 97290,
        "city": "LE MARIN"
    },
    {
        "zip": 97300,
        "city": "CAYENNE"
    },
    {
        "zip": 97320,
        "city": "SAINT LAURENT DU MARONI"
    },
    {
        "zip": 97400,
        "city": "SAINT DENIS"
    },
    {
        "zip": 97410,
        "city": "SAINT PIERRE"
    },
    {
        "zip": 97411,
        "city": "SAINT PAUL"
    },
    {
        "zip": 97417,
        "city": "SAINT DENIS"
    },
    {
        "zip": 97421,
        "city": "SAINT LOUIS"
    },
    {
        "zip": 97422,
        "city": "SAINT PAUL"
    },
    {
        "zip": 97423,
        "city": "SAINT PAUL"
    },
    {
        "zip": 97431,
        "city": "LA PLAINE DES PALMISTES"
    },
    {
        "zip": 97432,
        "city": "SAINT PIERRE"
    },
    {
        "zip": 97434,
        "city": "SAINT PAUL"
    },
    {
        "zip": 97435,
        "city": "SAINT PAUL"
    },
    {
        "zip": 97437,
        "city": "SAINT BENOIT"
    },
    {
        "zip": 97450,
        "city": "SAINT LOUIS"
    },
    {
        "zip": 97460,
        "city": "SAINT PAUL"
    },
    {
        "zip": 97470,
        "city": "SAINT BENOIT"
    },
    {
        "zip": 97490,
        "city": "SAINT DENIS"
    },
    {
        "zip": 97500,
        "city": "SAINT PIERRE"
    }
]